,postcode,borough,neighbourhood_list,latitude,longitude,merge_key,name,ven_categories,ven_latitude,ven_longitude,ven_postalcode
0,M3A,North York,Parkwoods,43.7532586,-79.3296565,0,Pho Com Viet Nam,Vietnamese,43.75663119859895,-79.51833633068185,M3N 2V3
1,M3A,North York,Parkwoods,43.7532586,-79.3296565,0,Pizza Hut,Pizza,43.75633958118749,-79.51781778764257,M3N 2V3
2,M3A,North York,Parkwoods,43.7532586,-79.3296565,0,KFC,Fast Food,43.7566,-79.5181,M3N 2V3
3,M3A,North York,Parkwoods,43.7532586,-79.3296565,0,The Beer Store,Beer Store,43.7560941,-79.5162392,M3N 2V3
4,M3A,North York,Parkwoods,43.7532586,-79.3296565,0,Subway,Sandwiches,43.75617104020033,-79.5182508987524,M3N 2V3
5,M3A,North York,Parkwoods,43.7532586,-79.3296565,0,Tim Hortons,Coffee Shop,43.75434420900222,-79.52702411134463,M3N 1N1
6,M3A,North York,Parkwoods,43.7532586,-79.3296565,0,Tim Hortons,Coffee Shop,43.7561284,-79.5162657,M3N 2K1
7,M3A,North York,Parkwoods,43.7532586,-79.3296565,0,Pho Mi Viet Hoa,Vietnamese,43.7519356619472,-79.51597892461835,M3N 2J5
8,M3A,North York,Parkwoods,43.7532586,-79.3296565,0,Planet Fitness,Gym / Fitness,43.757538,-79.51961,
9,M3A,North York,Parkwoods,43.7532586,-79.3296565,0,Hwy 400 at Finch W.,Road,43.75439885206936,-79.52696696364671,
10,M3A,North York,Parkwoods,43.7532586,-79.3296565,0,Jian Hing Supermarket,Grocery Store,43.75667320052111,-79.51844367991136,M3N 2K2
0,M4A,North York,Victoria Village,43.725882299999995,-79.31557159999998,1,Oakdale Golf and Country Club,Golf Course,43.727966085004844,-79.52231249726017,
1,M4A,North York,Victoria Village,43.725882299999995,-79.31557159999998,1,Commercial Bakeries,Bakery,43.7279474149062,-79.52232014925207,
2,M4A,North York,Victoria Village,43.725882299999995,-79.31557159999998,1,Hwy 401 & Hwy 400,Intersection,43.72797242773429,-79.5223015286055,
3,M4A,North York,Victoria Village,43.725882299999995,-79.31557159999998,1,auctionmaxx,Discount Store,43.72710081596881,-79.52517301758158,M9M 2W6
0,M5A,Downtown Toronto,Harbourfront,43.6542599,-79.3606359,2,Trattoria Leonardo,Italian,43.65289339411601,-79.52529976414611,
1,M5A,Downtown Toronto,Harbourfront,43.6542599,-79.3606359,2,Montgomery's Inn Museum,History Museum,43.651831023293425,-79.525597213862,
2,M5A,Downtown Toronto,Harbourfront,43.6542599,-79.3606359,2,Kingsway Offleash Dig Park,Dog Run,43.651777088181596,-79.51748287861362,
3,M5A,Downtown Toronto,Harbourfront,43.6542599,-79.3606359,2,Lenny's,Italian,43.65275282508091,-79.52551486631664,
0,M6A,North York,"Lawrence Heights,Lawrence Manor",43.718517999999996,-79.46476329999999,3,The Davey Tree Expert Company,Construction,43.71933285,-79.51904169,M3L 1G9
1,M6A,North York,"Lawrence Heights,Lawrence Manor",43.718517999999996,-79.46476329999999,3,Fiera Foods,Bakery,43.71894579794069,-79.5259211134858,
2,M6A,North York,"Lawrence Heights,Lawrence Manor",43.718517999999996,-79.46476329999999,3,Country Style,Coffee Shop,43.718968612032626,-79.51541594980596,
3,M6A,North York,"Lawrence Heights,Lawrence Manor",43.718517999999996,-79.46476329999999,3,Pelmo Community Centre,Outdoors & Recreation,43.71441852002091,-79.51989309816359,
0,M7A,Downtown Toronto,Queen's Park,43.6623015,-79.3894938,4,COBS Bread,Bakery,43.664940367690775,-79.5204847956449,M9A 3T7
1,M7A,Downtown Toronto,Queen's Park,43.6623015,-79.3894938,4,Shoppers Drug Mart,Pharmacy,43.661721,-79.518881,M9A 3T7
2,M7A,Downtown Toronto,Queen's Park,43.6623015,-79.3894938,4,Bulk Barn,Supermarket,43.66093887342527,-79.51777280977804,
3,M7A,Downtown Toronto,Queen's Park,43.6623015,-79.3894938,4,LCBO,Liquor Store,43.66129764810834,-79.51815020642661,M9A 3T6
4,M7A,Downtown Toronto,Queen's Park,43.6623015,-79.3894938,4,Loblaws,Grocery Store,43.661721,-79.518881,M9A 3T7
5,M7A,Downtown Toronto,Queen's Park,43.6623015,-79.3894938,4,Humbertown Shopping Centre,Mall,43.66179660557881,-79.51686144733992,M9A 3T7
6,M7A,Downtown Toronto,Queen's Park,43.6623015,-79.3894938,4,Black's Photography,Camera Store,43.661490294225544,-79.51931662775152,M9A 3T7
7,M7A,Downtown Toronto,Queen's Park,43.6623015,-79.3894938,4,Humbertown Village Spa,Spa,43.661428039626685,-79.5192891766887,M9A 3T7
8,M7A,Downtown Toronto,Queen's Park,43.6623015,-79.3894938,4,Baskin-Robbins,Ice Cream,43.661654485684906,-79.51919035279421,M9A
9,M7A,Downtown Toronto,Queen's Park,43.6623015,-79.3894938,4,Alex Farm Produce,Restaurant,43.66152815366217,-79.51889937070585,
10,M7A,Downtown Toronto,Queen's Park,43.6623015,-79.3894938,4,Daisaky,Japanese,43.66237993188327,-79.51967349081686,
11,M7A,Downtown Toronto,Queen's Park,43.6623015,-79.3894938,4,Humbertown Convenience,Convenience Store,43.66492858170565,-79.52048054521903,
12,M7A,Downtown Toronto,Queen's Park,43.6623015,-79.3894938,4,Second Cup,Coffee Shop,43.66227280880637,-79.5192342745383,
13,M7A,Downtown Toronto,Queen's Park,43.6623015,-79.3894938,4,Humber Valley Rink,Skating Rink,43.66482600084906,-79.5248725529118,
14,M7A,Downtown Toronto,Queen's Park,43.6623015,-79.3894938,4,Humber Valley Park,Park,43.66482484362267,-79.52499882000663,
15,M7A,Downtown Toronto,Queen's Park,43.6623015,-79.3894938,4,TTC Stop #6972,Bus Stop,43.666139,-79.519814,
0,M9A,Queen's Park,Queen's Park,43.6678556,-79.53224240000002,5,COBS Bread,Bakery,43.664940367690775,-79.5204847956449,M9A 3T7
1,M9A,Queen's Park,Queen's Park,43.6678556,-79.53224240000002,5,TTC Stop #6972,Bus Stop,43.666139,-79.519814,
2,M9A,Queen's Park,Queen's Park,43.6678556,-79.53224240000002,5,Humbertown Convenience,Convenience Store,43.66492858170565,-79.52048054521903,
3,M9A,Queen's Park,Queen's Park,43.6678556,-79.53224240000002,5,Humber Valley Rink,Skating Rink,43.66482600084906,-79.5248725529118,
4,M9A,Queen's Park,Queen's Park,43.6678556,-79.53224240000002,5,Edgehill House,Park,43.670761782876156,-79.51687894119398,
5,M9A,Queen's Park,Queen's Park,43.6678556,-79.53224240000002,5,Humber Valley Park,Park,43.66482484362267,-79.52499882000663,
0,M1B,Scarborough,"Rouge,Malvern",43.806686299999996,-79.19435340000001,6,St. Joseph's,Print Shop,43.804702869879684,-79.52368124171912,
1,M1B,Scarborough,"Rouge,Malvern",43.806686299999996,-79.19435340000001,6,Chair Source,Furniture / Home,43.8039382,-79.5257269,L4K 5Y3
2,M1B,Scarborough,"Rouge,Malvern",43.806686299999996,-79.19435340000001,6,North Toronto Paints,Construction,43.80416,-79.52598,L4K 4L7
3,M1B,Scarborough,"Rouge,Malvern",43.806686299999996,-79.19435340000001,6,Sarana Tile,Furniture / Home,43.80686753526258,-79.52709268522327,L4K 5P2
0,M3B,North York,Don Mills North,43.745905799999996,-79.352188,7,Commisso Bakery,Tea Room,43.748678,-79.51726151,M3N 1H7
1,M3B,North York,Don Mills North,43.745905799999996,-79.352188,7,Eddystone Meats,Food & Drink,43.74759737621367,-79.52158954711045,M3N 1H8
2,M3B,North York,Don Mills North,43.745905799999996,-79.352188,7,Fennimore Park,Park,43.745397946352256,-79.52228307723999,
3,M3B,North York,Don Mills North,43.745905799999996,-79.352188,7,Auto Collision Centre Ltd,Auto Garage,43.748722,-79.51824,
0,M4B,East York,"Woodbine Gardens,Parkview Hill",43.7063972,-79.309937,8,Elm Park,Park,43.70613889238497,-79.51586870967138,
1,M4B,East York,"Woodbine Gardens,Parkview Hill",43.7063972,-79.309937,8,Olympic convenience store,Convenience Store,43.70448603955921,-79.51578933384089,
2,M4B,East York,"Woodbine Gardens,Parkview Hill",43.7063972,-79.309937,8,Eggsmart,Breakfast,43.70227,-79.523103,
0,M5B,Downtown Toronto,"Ryerson,Garden District",43.6571618,-79.37893709999999,9,Bulk Barn,Supermarket,43.66093887342527,-79.51777280977804,
1,M5B,Downtown Toronto,"Ryerson,Garden District",43.6571618,-79.37893709999999,9,Humbertown Village Spa,Spa,43.661428039626685,-79.5192891766887,M9A 3T7
2,M5B,Downtown Toronto,"Ryerson,Garden District",43.6571618,-79.37893709999999,9,Black's Photography,Camera Store,43.661490294225544,-79.51931662775152,M9A 3T7
0,M6B,North York,Glencairn,43.709577,-79.44507259999999,10,Wallace C. Swanek Park,Park,43.708896432967165,-79.52264785766602,
1,M6B,North York,Glencairn,43.709577,-79.44507259999999,10,Grattan Park,Park,43.70622161954314,-79.52170483861298,
2,M6B,North York,Glencairn,43.709577,-79.44507259999999,10,Chicken Place,Snacks,43.711381,-79.516808,
3,M6B,North York,Glencairn,43.709577,-79.44507259999999,10,Maple Leafs Movers North York : Moving Company,Moving Target,43.71294463851822,-79.52324867248535,M9N 2P3
4,M6B,North York,Glencairn,43.709577,-79.44507259999999,10,Level 100 Sports Productions,Sports Club,43.70793475007751,-79.52625274658202,M9N 2J7
0,M9B,Etobicoke,"Cloverdale,Islington,Martin Grove,Princess Gardens,West Deane Park",43.6509432,-79.55472440000001,11,Trattoria Leonardo,Italian,43.65289339411601,-79.52529976414611,
1,M9B,Etobicoke,"Cloverdale,Islington,Martin Grove,Princess Gardens,West Deane Park",43.6509432,-79.55472440000001,11,Montgomery's Inn Museum,History Museum,43.651831023293425,-79.525597213862,
2,M9B,Etobicoke,"Cloverdale,Islington,Martin Grove,Princess Gardens,West Deane Park",43.6509432,-79.55472440000001,11,Donnybrook Park,Park,43.653321988529626,-79.52024765658007,
3,M9B,Etobicoke,"Cloverdale,Islington,Martin Grove,Princess Gardens,West Deane Park",43.6509432,-79.55472440000001,11,Second Cup,Coffee Shop,43.65043179589949,-79.52716831628511,M9A 1B4
4,M9B,Etobicoke,"Cloverdale,Islington,Martin Grove,Princess Gardens,West Deane Park",43.6509432,-79.55472440000001,11,Montgomery Dry Cleaners,Apparel,43.65267627022017,-79.52524586381715,
0,M1C,Scarborough,"Highland Creek,Rouge Hill,Port Union",43.7845351,-79.16049709999999,12,Highway 407 Subway Station,Metro,43.78297713720161,-79.52359199523926,
1,M1C,Scarborough,"Highland Creek,Rouge Hill,Port Union",43.7845351,-79.16049709999999,12,AB Limo,Auto Garage,43.78807369127238,-79.52224016189575,L4K 1A3
2,M1C,Scarborough,"Highland Creek,Rouge Hill,Port Union",43.7845351,-79.16049709999999,12,Noble,Hardware,43.78162524676055,-79.51762194432501,L4K 1A7
0,M3C,North York,"Flemingdon Park,Don Mills South",43.72589970000001,-79.340923,13,Oakdale Golf and Country Club,Golf Course,43.727966085004844,-79.52231249726017,
1,M3C,North York,"Flemingdon Park,Don Mills South",43.72589970000001,-79.340923,13,Commercial Bakeries,Bakery,43.7279474149062,-79.52232014925207,
2,M3C,North York,"Flemingdon Park,Don Mills South",43.72589970000001,-79.340923,13,Hwy 401 & Hwy 400,Intersection,43.72797242773429,-79.5223015286055,
3,M3C,North York,"Flemingdon Park,Don Mills South",43.72589970000001,-79.340923,13,auctionmaxx,Discount Store,43.72710081596881,-79.52517301758158,M9M 2W6
0,M4C,East York,Woodbine Heights,43.695343900000005,-79.3183887,14,Weston Lions Arena,Skating Rink,43.69870670108964,-79.51854809647945,
1,M4C,East York,Woodbine Heights,43.695343900000005,-79.3183887,14,Petro-Canada,Gas Station,43.696091,-79.520962,M9P 2T5
2,M4C,East York,Woodbine Heights,43.695343900000005,-79.3183887,14,Parma Pizza,Pizza,43.69551785568132,-79.52042015364003,M9P 2T5
3,M4C,East York,Woodbine Heights,43.695343900000005,-79.3183887,14,Starfish Caribbean Market Ltd,Grocery Store,43.69894587598971,-79.51859191692546,M9N 1V6
4,M4C,East York,Woodbine Heights,43.695343900000005,-79.3183887,14,West Lions Park,Soccer Field,43.698465872229214,-79.51687894119398,M9N 1G4
0,M5C,Downtown Toronto,St. James Town,43.6514939,-79.3754179,15,Trattoria Leonardo,Italian,43.65289339411601,-79.52529976414611,
1,M5C,Downtown Toronto,St. James Town,43.6514939,-79.3754179,15,Montgomery's Inn Museum,History Museum,43.651831023293425,-79.525597213862,
2,M5C,Downtown Toronto,St. James Town,43.6514939,-79.3754179,15,Donnybrook Park,Park,43.653321988529626,-79.52024765658007,
3,M5C,Downtown Toronto,St. James Town,43.6514939,-79.3754179,15,Montgomery Dry Cleaners,Apparel,43.65267627022017,-79.52524586381715,
0,M6C,York,Humewood-Cedarvale,43.6937813,-79.42819140000002,16,Petro-Canada,Gas Station,43.696091,-79.520962,M9P 2T5
1,M6C,York,Humewood-Cedarvale,43.6937813,-79.42819140000002,16,Parma Pizza,Pizza,43.69551785568132,-79.52042015364003,M9P 2T5
2,M6C,York,Humewood-Cedarvale,43.6937813,-79.42819140000002,16,Douglas B. Ford Park,Park,43.691309553419806,-79.51674168213238,
0,M9C,Etobicoke,"Bloordale Gardens,Eringate,Markland Wood,Old Burnhamthorpe",43.6435152,-79.57720079999999,17,Gourmet Bakery (Islington Station),Bakery,43.64491852702881,-79.52471129398302,
1,M9C,Etobicoke,"Bloordale Gardens,Eringate,Markland Wood,Old Burnhamthorpe",43.6435152,-79.57720079999999,17,Starbucks,Coffee Shop,43.645425,-79.522439,M8X 2X3
2,M9C,Etobicoke,"Bloordale Gardens,Eringate,Markland Wood,Old Burnhamthorpe",43.6435152,-79.57720079999999,17,Gojima,Japanese,43.6450937571191,-79.52167215350396,M8X 1E9
3,M9C,Etobicoke,"Bloordale Gardens,Eringate,Markland Wood,Old Burnhamthorpe",43.6435152,-79.57720079999999,17,Sobeys,Grocery Store,43.645726,-79.521369,M8X 2X9
4,M9C,Etobicoke,"Bloordale Gardens,Eringate,Markland Wood,Old Burnhamthorpe",43.6435152,-79.57720079999999,17,Lemongrass,Thai,43.64501004827513,-79.52237930103196,
5,M9C,Etobicoke,"Bloordale Gardens,Eringate,Markland Wood,Old Burnhamthorpe",43.6435152,-79.57720079999999,17,The Beer Store,Beer Store,43.6441229,-79.5256144,M8X 1G4
6,M9C,Etobicoke,"Bloordale Gardens,Eringate,Markland Wood,Old Burnhamthorpe",43.6435152,-79.57720079999999,17,A&W,Fast Food,43.645096,-79.522514,M8X 1G2
7,M9C,Etobicoke,"Bloordale Gardens,Eringate,Markland Wood,Old Burnhamthorpe",43.6435152,-79.57720079999999,17,A&W,Fast Food,43.64536,-79.521563,M8X 2X4
8,M9C,Etobicoke,"Bloordale Gardens,Eringate,Markland Wood,Old Burnhamthorpe",43.6435152,-79.57720079999999,17,Second Cup,Coffee Shop,43.64533056349981,-79.52275256405419,M8X 2W8
9,M9C,Etobicoke,"Bloordale Gardens,Eringate,Markland Wood,Old Burnhamthorpe",43.6435152,-79.57720079999999,17,Thai Express,Thai,43.645427,-79.522446,M8X 2X3
10,M9C,Etobicoke,"Bloordale Gardens,Eringate,Markland Wood,Old Burnhamthorpe",43.6435152,-79.57720079999999,17,Subway,Sandwiches,43.64501417215867,-79.52216600316655,
11,M9C,Etobicoke,"Bloordale Gardens,Eringate,Markland Wood,Old Burnhamthorpe",43.6435152,-79.57720079999999,17,Tim Hortons,Coffee Shop,43.64527816413406,-79.52236337301633,M8Z 5B5
12,M9C,Etobicoke,"Bloordale Gardens,Eringate,Markland Wood,Old Burnhamthorpe",43.6435152,-79.57720079999999,17,Mitzie's Jerk,Caribbean,43.6452148372177,-79.52141242658975,M8X 1E9
13,M9C,Etobicoke,"Bloordale Gardens,Eringate,Markland Wood,Old Burnhamthorpe",43.6435152,-79.57720079999999,17,GoodLife Fitness,Gym,43.64554,-79.522255,M8X 2X2
14,M9C,Etobicoke,"Bloordale Gardens,Eringate,Markland Wood,Old Burnhamthorpe",43.6435152,-79.57720079999999,17,Pizza Pizza,Pizza,43.64495916856127,-79.52246841231887,M8X 1G2
15,M9C,Etobicoke,"Bloordale Gardens,Eringate,Markland Wood,Old Burnhamthorpe",43.6435152,-79.57720079999999,17,Orwell's,Pub,43.64488496919141,-79.52312559497283,M8X 1G2
16,M9C,Etobicoke,"Bloordale Gardens,Eringate,Markland Wood,Old Burnhamthorpe",43.6435152,-79.57720079999999,17,Squire & Firkin,Pub,43.645231296334295,-79.52124579478895,M8X 1E9
17,M9C,Etobicoke,"Bloordale Gardens,Eringate,Markland Wood,Old Burnhamthorpe",43.6435152,-79.57720079999999,17,Freshii,Gluten-free,43.645411282104604,-79.52263814541413,M8X 2X2
18,M9C,Etobicoke,"Bloordale Gardens,Eringate,Markland Wood,Old Burnhamthorpe",43.6435152,-79.57720079999999,17,Sushi Express,Sushi,43.645432647801336,-79.52557525452383,
0,M1E,Scarborough,"Guildwood,Morningside,West Hill",43.7635726,-79.1887115,18,Petro-Canada,Gas Station,43.766586,-79.51987,M3N 2L2
1,M1E,Scarborough,"Guildwood,Morningside,West Hill",43.7635726,-79.1887115,18,Rexall,Pharmacy,43.76659,-79.519852,M3N 2L3
2,M1E,Scarborough,"Guildwood,Morningside,West Hill",43.7635726,-79.1887115,18,Basketball Court,Basketball Court,43.76683682614104,-79.52210012265873,
3,M1E,Scarborough,"Guildwood,Morningside,West Hill",43.7635726,-79.1887115,18,LCBO,Liquor Store,43.759256617873106,-79.51945388294175,M3N 3A1
0,M4E,East Toronto,The Beaches,43.67635739999999,-79.2930312,19,TTC Bus 73 Royal York,Bus,43.6772463547691,-79.51962956928409,
1,M4E,East Toronto,The Beaches,43.67635739999999,-79.2930312,19,Pasta International,Indian,43.6727027413364,-79.51922329410428,
2,M4E,East Toronto,The Beaches,43.67635739999999,-79.2930312,19,Allanhurst Park,Playground,43.67896841669573,-79.52500430987637,
3,M4E,East Toronto,The Beaches,43.67635739999999,-79.2930312,19,A Dog's Haven,Dog Run,43.672945960724896,-79.51792643640067,M9A 4P5
0,M5E,Downtown Toronto,Berczy Park,43.644770799999996,-79.3733064,20,Gourmet Bakery (Islington Station),Bakery,43.64491852702881,-79.52471129398302,
1,M5E,Downtown Toronto,Berczy Park,43.644770799999996,-79.3733064,20,Starbucks,Coffee Shop,43.645425,-79.522439,M8X 2X3
2,M5E,Downtown Toronto,Berczy Park,43.644770799999996,-79.3733064,20,Sobeys,Grocery Store,43.645726,-79.521369,M8X 2X9
3,M5E,Downtown Toronto,Berczy Park,43.644770799999996,-79.3733064,20,Gojima,Japanese,43.6450937571191,-79.52167215350396,M8X 1E9
4,M5E,Downtown Toronto,Berczy Park,43.644770799999996,-79.3733064,20,Lemongrass,Thai,43.64501004827513,-79.52237930103196,
5,M5E,Downtown Toronto,Berczy Park,43.644770799999996,-79.3733064,20,The Beer Store,Beer Store,43.6441229,-79.5256144,M8X 1G4
6,M5E,Downtown Toronto,Berczy Park,43.644770799999996,-79.3733064,20,A&W,Fast Food,43.645096,-79.522514,M8X 1G2
7,M5E,Downtown Toronto,Berczy Park,43.644770799999996,-79.3733064,20,A&W,Fast Food,43.64536,-79.521563,M8X 2X4
8,M5E,Downtown Toronto,Berczy Park,43.644770799999996,-79.3733064,20,Second Cup,Coffee Shop,43.64533056349981,-79.52275256405419,M8X 2W8
9,M5E,Downtown Toronto,Berczy Park,43.644770799999996,-79.3733064,20,Thai Express,Thai,43.645427,-79.522446,M8X 2X3
10,M5E,Downtown Toronto,Berczy Park,43.644770799999996,-79.3733064,20,Subway,Sandwiches,43.64501417215867,-79.52216600316655,
11,M5E,Downtown Toronto,Berczy Park,43.644770799999996,-79.3733064,20,Tim Hortons,Coffee Shop,43.64527816413406,-79.52236337301633,M8Z 5B5
12,M5E,Downtown Toronto,Berczy Park,43.644770799999996,-79.3733064,20,GoodLife Fitness,Gym,43.64554,-79.522255,M8X 2X2
13,M5E,Downtown Toronto,Berczy Park,43.644770799999996,-79.3733064,20,Mitzie's Jerk,Caribbean,43.6452148372177,-79.52141242658975,M8X 1E9
14,M5E,Downtown Toronto,Berczy Park,43.644770799999996,-79.3733064,20,Pizza Pizza,Pizza,43.64495916856127,-79.52246841231887,M8X 1G2
15,M5E,Downtown Toronto,Berczy Park,43.644770799999996,-79.3733064,20,Orwell's,Pub,43.64488496919141,-79.52312559497283,M8X 1G2
16,M5E,Downtown Toronto,Berczy Park,43.644770799999996,-79.3733064,20,Squire & Firkin,Pub,43.645231296334295,-79.52124579478895,M8X 1E9
17,M5E,Downtown Toronto,Berczy Park,43.644770799999996,-79.3733064,20,Freshii,Gluten-free,43.645411282104604,-79.52263814541413,M8X 2X2
18,M5E,Downtown Toronto,Berczy Park,43.644770799999996,-79.3733064,20,Sushi Express,Sushi,43.645432647801336,-79.52557525452383,
19,M5E,Downtown Toronto,Berczy Park,43.644770799999996,-79.3733064,20,Mabelle Convenience,Convenience Store,43.64649806233653,-79.52670066379756,
0,M6E,York,Caledonia-Fairbanks,43.6890256,-79.453512,21,LaRose Bakery,Bakery,43.6868346398581,-79.52443561640371,
1,M6E,York,Caledonia-Fairbanks,43.6890256,-79.453512,21,Pizza Pizza,Pizza,43.68525618478996,-79.5235824225805,M9P 1B2
2,M6E,York,Caledonia-Fairbanks,43.6890256,-79.453512,21,Moxie's Classic Grill,Restaurant,43.68687,-79.524454,
3,M6E,York,Caledonia-Fairbanks,43.6890256,-79.453512,21,Mac's Milk,Convenience Store,43.68557185191021,-79.52369771156515,
0,M1G,Scarborough,Woburn,43.7709921,-79.21691740000001,22,Black Creek Pioneer Village,Historic Site,43.773393430343425,-79.51699139740164,M3J 3P1
1,M1G,Scarborough,Woburn,43.7709921,-79.21691740000001,22,Tri Star Restaurant,Chinese,43.76933638194449,-79.52024995897516,M3N 2L2
2,M1G,Scarborough,Woburn,43.7709921,-79.21691740000001,22,Petro-Canada,Gas Station,43.766586,-79.51987,M3N 2L2
3,M1G,Scarborough,Woburn,43.7709921,-79.21691740000001,22,John Booth Memorial Arena,Skating Rink,43.769548855413575,-79.52324753470374,
0,M4G,East York,Leaside,43.7090604,-79.3634517,23,Chicken Place,Snacks,43.711381,-79.516808,
1,M4G,East York,Leaside,43.7090604,-79.3634517,23,Maple Leafs Movers North York : Moving Company,Moving Target,43.71294463851822,-79.52324867248535,M9N 2P3
0,M5G,Downtown Toronto,Central Bay Street,43.6579524,-79.3873826,24,Bulk Barn,Supermarket,43.66093887342527,-79.51777280977804,
1,M5G,Downtown Toronto,Central Bay Street,43.6579524,-79.3873826,24,Shoppers Drug Mart,Pharmacy,43.661721,-79.518881,M9A 3T7
2,M5G,Downtown Toronto,Central Bay Street,43.6579524,-79.3873826,24,LCBO,Liquor Store,43.66129764810834,-79.51815020642661,M9A 3T6
3,M5G,Downtown Toronto,Central Bay Street,43.6579524,-79.3873826,24,Loblaws,Grocery Store,43.661721,-79.518881,M9A 3T7
4,M5G,Downtown Toronto,Central Bay Street,43.6579524,-79.3873826,24,Humbertown Village Spa,Spa,43.661428039626685,-79.5192891766887,M9A 3T7
5,M5G,Downtown Toronto,Central Bay Street,43.6579524,-79.3873826,24,Black's Photography,Camera Store,43.661490294225544,-79.51931662775152,M9A 3T7
6,M5G,Downtown Toronto,Central Bay Street,43.6579524,-79.3873826,24,Alex Farm Produce,Restaurant,43.66152815366217,-79.51889937070585,
7,M5G,Downtown Toronto,Central Bay Street,43.6579524,-79.3873826,24,Baskin-Robbins,Ice Cream,43.661654485684906,-79.51919035279421,M9A
0,M6G,Downtown Toronto,Christie,43.669542,-79.4225637,25,McDonald's,Fast Food,43.671091716525275,-79.52665125587696,
1,M6G,Downtown Toronto,Christie,43.669542,-79.4225637,25,Edgehill House,Park,43.670761782876156,-79.51687894119398,
2,M6G,Downtown Toronto,Christie,43.669542,-79.4225637,25,TTC Stop #6972,Bus Stop,43.666139,-79.519814,
3,M6G,Downtown Toronto,Christie,43.669542,-79.4225637,25,A Dog's Haven,Dog Run,43.672945960724896,-79.51792643640067,M9A 4P5
0,M1H,Scarborough,Cedarbrae,43.773136,-79.23947609999999,26,Black Creek Pioneer Village,Historic Site,43.773393430343425,-79.51699139740164,M3J 3P1
1,M1H,Scarborough,Cedarbrae,43.773136,-79.23947609999999,26,Cuscatlan,Latin American,43.77484812785402,-79.52625419919369,M3H 5T8
2,M1H,Scarborough,Cedarbrae,43.773136,-79.23947609999999,26,Black Creek Restaurant,Gastropub,43.77530076234947,-79.51826799128665,
3,M1H,Scarborough,Cedarbrae,43.773136,-79.23947609999999,26,Black Creek Historic Brewery,Brewery,43.77512232622267,-79.51683282852173,M3J 2P3
4,M1H,Scarborough,Cedarbrae,43.773136,-79.23947609999999,26,Tri Star Restaurant,Chinese,43.76933638194449,-79.52024995897516,M3N 2L2
5,M1H,Scarborough,Cedarbrae,43.773136,-79.23947609999999,26,John Booth Memorial Arena,Skating Rink,43.769548855413575,-79.52324753470374,
6,M1H,Scarborough,Cedarbrae,43.773136,-79.23947609999999,26,Com Pho The Ky,Restaurant,43.77476978532541,-79.52606384854815,
0,M2H,North York,Hillcrest Village,43.8037622,-79.3634517,27,St. Joseph's,Print Shop,43.804702869879684,-79.52368124171912,
1,M2H,North York,Hillcrest Village,43.8037622,-79.3634517,27,North Toronto Paints,Construction,43.80416,-79.52598,L4K 4L7
0,M3H,North York,"Bathurst Manor,Downsview North,Wilson Heights",43.7543283,-79.4422593,28,Pho Com Viet Nam,Vietnamese,43.75663119859895,-79.51833633068185,M3N 2V3
1,M3H,North York,"Bathurst Manor,Downsview North,Wilson Heights",43.7543283,-79.4422593,28,Shoppers Drug Mart,Pharmacy,43.756147,-79.515843,M3N 2K1
2,M3H,North York,"Bathurst Manor,Downsview North,Wilson Heights",43.7543283,-79.4422593,28,Pizza Hut,Pizza,43.75633958118749,-79.51781778764257,M3N 2V3
3,M3H,North York,"Bathurst Manor,Downsview North,Wilson Heights",43.7543283,-79.4422593,28,KFC,Fast Food,43.7566,-79.5181,M3N 2V3
4,M3H,North York,"Bathurst Manor,Downsview North,Wilson Heights",43.7543283,-79.4422593,28,The Beer Store,Beer Store,43.7560941,-79.5162392,M3N 2V3
5,M3H,North York,"Bathurst Manor,Downsview North,Wilson Heights",43.7543283,-79.4422593,28,No Frills,Grocery Store,43.758178,-79.51968,M3N 3A1
6,M3H,North York,"Bathurst Manor,Downsview North,Wilson Heights",43.7543283,-79.4422593,28,Popeyes Louisiana Kitchen,Fried Chicken,43.75660425382002,-79.51604685393343,M3N 2K1
7,M3H,North York,"Bathurst Manor,Downsview North,Wilson Heights",43.7543283,-79.4422593,28,Subway,Sandwiches,43.75617104020033,-79.5182508987524,M3N 2V3
8,M3H,North York,"Bathurst Manor,Downsview North,Wilson Heights",43.7543283,-79.4422593,28,Petro-Canada,Gas Station,43.757187,-79.517778,M3N 2Z2
9,M3H,North York,"Bathurst Manor,Downsview North,Wilson Heights",43.7543283,-79.4422593,28,Pizza Pizza,Pizza,43.756185976894656,-79.5154595375061,M3N 2H1
10,M3H,North York,"Bathurst Manor,Downsview North,Wilson Heights",43.7543283,-79.4422593,28,Tim Hortons,Coffee Shop,43.75434420900222,-79.52702411134463,M3N 1N1
11,M3H,North York,"Bathurst Manor,Downsview North,Wilson Heights",43.7543283,-79.4422593,28,Tim Hortons,Coffee Shop,43.7561284,-79.5162657,M3N 2K1
12,M3H,North York,"Bathurst Manor,Downsview North,Wilson Heights",43.7543283,-79.4422593,28,Planet Fitness,Gym / Fitness,43.757538,-79.51961,
13,M3H,North York,"Bathurst Manor,Downsview North,Wilson Heights",43.7543283,-79.4422593,28,Dollarama,Discount Store,43.758177,-79.519679,M3N 3A1
14,M3H,North York,"Bathurst Manor,Downsview North,Wilson Heights",43.7543283,-79.4422593,28,Jian Hing Supermarket,Grocery Store,43.75667320052111,-79.51844367991136,M3N 2K2
15,M3H,North York,"Bathurst Manor,Downsview North,Wilson Heights",43.7543283,-79.4422593,28,Living Well,Caribbean,43.756460538385106,-79.51598949881128,M3N 2V2
16,M3H,North York,"Bathurst Manor,Downsview North,Wilson Heights",43.7543283,-79.4422593,28,Hwy 400 at Finch W.,Road,43.75439885206936,-79.52696696364671,
17,M3H,North York,"Bathurst Manor,Downsview North,Wilson Heights",43.7543283,-79.4422593,28,Pho Mi Viet Hoa,Vietnamese,43.7519356619472,-79.51597892461835,M3N 2J5
18,M3H,North York,"Bathurst Manor,Downsview North,Wilson Heights",43.7543283,-79.4422593,28,Yorkgate Mall,Mall,43.75866403784837,-79.51964054966928,
0,M4H,East York,Thorncliffe Park,43.7053689,-79.34937190000001,29,Shoppers Drug Mart,Pharmacy,43.701264,-79.519705,M9N 1X2
1,M4H,East York,Thorncliffe Park,43.7053689,-79.34937190000001,29,Eggsmart,Breakfast,43.70227,-79.523103,
2,M4H,East York,Thorncliffe Park,43.7053689,-79.34937190000001,29,Elm Park,Park,43.70613889238497,-79.51586870967138,
3,M4H,East York,Thorncliffe Park,43.7053689,-79.34937190000001,29,Olympic convenience store,Convenience Store,43.70448603955921,-79.51578933384089,
0,M5H,Downtown Toronto,"Adelaide,King,Richmond",43.65057120000001,-79.3845675,30,Trattoria Leonardo,Italian,43.65289339411601,-79.52529976414611,
1,M5H,Downtown Toronto,"Adelaide,King,Richmond",43.65057120000001,-79.3845675,30,Montgomery's Inn Museum,History Museum,43.651831023293425,-79.525597213862,
2,M5H,Downtown Toronto,"Adelaide,King,Richmond",43.65057120000001,-79.3845675,30,Donnybrook Park,Park,43.653321988529626,-79.52024765658007,
3,M5H,Downtown Toronto,"Adelaide,King,Richmond",43.65057120000001,-79.3845675,30,Second Cup,Coffee Shop,43.65043179589949,-79.52716831628511,M9A 1B4
4,M5H,Downtown Toronto,"Adelaide,King,Richmond",43.65057120000001,-79.3845675,30,Montgomery Dry Cleaners,Apparel,43.65267627022017,-79.52524586381715,
0,M6H,West Toronto,"Dovercourt Village,Dufferin",43.66900510000001,-79.4422593,31,COBS Bread,Bakery,43.664940367690775,-79.5204847956449,M9A 3T7
1,M6H,West Toronto,"Dovercourt Village,Dufferin",43.66900510000001,-79.4422593,31,TTC Stop #6972,Bus Stop,43.666139,-79.519814,
2,M6H,West Toronto,"Dovercourt Village,Dufferin",43.66900510000001,-79.4422593,31,Edgehill House,Park,43.670761782876156,-79.51687894119398,
3,M6H,West Toronto,"Dovercourt Village,Dufferin",43.66900510000001,-79.4422593,31,Humbertown Convenience,Convenience Store,43.66492858170565,-79.52048054521903,
0,M1J,Scarborough,Scarborough Village,43.7447342,-79.23947609999999,32,Fennimore Park,Park,43.745397946352256,-79.52228307723999,
1,M1J,Scarborough,Scarborough Village,43.7447342,-79.23947609999999,32,Eddystone Meats,Food & Drink,43.74759737621367,-79.52158954711045,M3N 1H8
2,M1J,Scarborough,Scarborough Village,43.7447342,-79.23947609999999,32,Auto Collision Centre Ltd,Auto Garage,43.748722,-79.51824,
0,M2J,North York,"Fairview,Henry Farm,Oriole",43.7785175,-79.3465557,33,Black Creek Restaurant,Gastropub,43.77530076234947,-79.51826799128665,
1,M2J,North York,"Fairview,Henry Farm,Oriole",43.7785175,-79.3465557,33,Noble,Hardware,43.78162524676055,-79.51762194432501,L4K 1A7
2,M2J,North York,"Fairview,Henry Farm,Oriole",43.7785175,-79.3465557,33,Tasty Pizza,Pizza,43.77412111673628,-79.52186954050678,M3N 2X7
0,M3J,North York,"Northwood Park,York University",43.7679803,-79.48726190000001,34,Petro-Canada,Gas Station,43.766586,-79.51987,M3N 2L2
1,M3J,North York,"Northwood Park,York University",43.7679803,-79.48726190000001,34,Tri Star Restaurant,Chinese,43.76933638194449,-79.52024995897516,M3N 2L2
2,M3J,North York,"Northwood Park,York University",43.7679803,-79.48726190000001,34,John Booth Memorial Arena,Skating Rink,43.769548855413575,-79.52324753470374,
3,M3J,North York,"Northwood Park,York University",43.7679803,-79.48726190000001,34,Driftwood community centre,Athletics & Sports,43.76567959563023,-79.51970643195256,M3N
0,M4J,East York,East Toronto,43.685347,-79.3381065,35,Plant World,Hardware,43.683627,-79.522305,M9A 4M2
1,M4J,East York,East Toronto,43.685347,-79.3381065,35,LaRose Bakery,Bakery,43.6868346398581,-79.52443561640371,
2,M4J,East York,East Toronto,43.685347,-79.3381065,35,Pizza Pizza,Pizza,43.68525618478996,-79.5235824225805,M9P 1B2
3,M4J,East York,East Toronto,43.685347,-79.3381065,35,Mac's Milk,Convenience Store,43.68557185191021,-79.52369771156515,
4,M4J,East York,East Toronto,43.685347,-79.3381065,35,Moxie's Classic Grill,Restaurant,43.68687,-79.524454,
5,M4J,East York,East Toronto,43.685347,-79.3381065,35,LaRose Plaza,Plaza,43.68596908878465,-79.52641104461547,
0,M5J,Downtown Toronto,"Harbourfront East,Toronto Islands,Union Station",43.6408157,-79.38175229999999,36,Power Yoga Canada Etobicoke,Yoga Studio,43.63659220688171,-79.52031160065043,
1,M5J,Downtown Toronto,"Harbourfront East,Toronto Islands,Union Station",43.6408157,-79.38175229999999,36,Gojima,Japanese,43.6450937571191,-79.52167215350396,M8X 1E9
2,M5J,Downtown Toronto,"Harbourfront East,Toronto Islands,Union Station",43.6408157,-79.38175229999999,36,Lemongrass,Thai,43.64501004827513,-79.52237930103196,
3,M5J,Downtown Toronto,"Harbourfront East,Toronto Islands,Union Station",43.6408157,-79.38175229999999,36,A&W,Fast Food,43.645096,-79.522514,M8X 1G2
4,M5J,Downtown Toronto,"Harbourfront East,Toronto Islands,Union Station",43.6408157,-79.38175229999999,36,Subway,Sandwiches,43.64501417215867,-79.52216600316655,
5,M5J,Downtown Toronto,"Harbourfront East,Toronto Islands,Union Station",43.6408157,-79.38175229999999,36,Mitzie's Jerk,Caribbean,43.6452148372177,-79.52141242658975,M8X 1E9
6,M5J,Downtown Toronto,"Harbourfront East,Toronto Islands,Union Station",43.6408157,-79.38175229999999,36,Pizza Pizza,Pizza,43.64495916856127,-79.52246841231887,M8X 1G2
7,M5J,Downtown Toronto,"Harbourfront East,Toronto Islands,Union Station",43.6408157,-79.38175229999999,36,Orwell's,Pub,43.64488496919141,-79.52312559497283,M8X 1G2
8,M5J,Downtown Toronto,"Harbourfront East,Toronto Islands,Union Station",43.6408157,-79.38175229999999,36,Tom Riley Park,Park,43.63897185621175,-79.5255643804047,
9,M5J,Downtown Toronto,"Harbourfront East,Toronto Islands,Union Station",43.6408157,-79.38175229999999,36,Squire & Firkin,Pub,43.645231296334295,-79.52124579478895,M8X 1E9
0,M6J,West Toronto,"Little Portugal,Trinity",43.647926700000006,-79.4197497,37,Starbucks,Coffee Shop,43.645425,-79.522439,M8X 2X3
1,M6J,West Toronto,"Little Portugal,Trinity",43.647926700000006,-79.4197497,37,Gourmet Bakery (Islington Station),Bakery,43.64491852702881,-79.52471129398302,
2,M6J,West Toronto,"Little Portugal,Trinity",43.647926700000006,-79.4197497,37,Sobeys,Grocery Store,43.645726,-79.521369,M8X 2X9
3,M6J,West Toronto,"Little Portugal,Trinity",43.647926700000006,-79.4197497,37,Gojima,Japanese,43.6450937571191,-79.52167215350396,M8X 1E9
4,M6J,West Toronto,"Little Portugal,Trinity",43.647926700000006,-79.4197497,37,Lemongrass,Thai,43.64501004827513,-79.52237930103196,
5,M6J,West Toronto,"Little Portugal,Trinity",43.647926700000006,-79.4197497,37,A&W,Fast Food,43.645096,-79.522514,M8X 1G2
6,M6J,West Toronto,"Little Portugal,Trinity",43.647926700000006,-79.4197497,37,A&W,Fast Food,43.64536,-79.521563,M8X 2X4
7,M6J,West Toronto,"Little Portugal,Trinity",43.647926700000006,-79.4197497,37,Thai Express,Thai,43.645427,-79.522446,M8X 2X3
8,M6J,West Toronto,"Little Portugal,Trinity",43.647926700000006,-79.4197497,37,Second Cup,Coffee Shop,43.64533056349981,-79.52275256405419,M8X 2W8
9,M6J,West Toronto,"Little Portugal,Trinity",43.647926700000006,-79.4197497,37,Subway,Sandwiches,43.64501417215867,-79.52216600316655,
10,M6J,West Toronto,"Little Portugal,Trinity",43.647926700000006,-79.4197497,37,GoodLife Fitness,Gym,43.64554,-79.522255,M8X 2X2
11,M6J,West Toronto,"Little Portugal,Trinity",43.647926700000006,-79.4197497,37,Tim Hortons,Coffee Shop,43.64527816413406,-79.52236337301633,M8Z 5B5
12,M6J,West Toronto,"Little Portugal,Trinity",43.647926700000006,-79.4197497,37,Mitzie's Jerk,Caribbean,43.6452148372177,-79.52141242658975,M8X 1E9
13,M6J,West Toronto,"Little Portugal,Trinity",43.647926700000006,-79.4197497,37,Pizza Pizza,Pizza,43.64495916856127,-79.52246841231887,M8X 1G2
14,M6J,West Toronto,"Little Portugal,Trinity",43.647926700000006,-79.4197497,37,Orwell's,Pub,43.64488496919141,-79.52312559497283,M8X 1G2
15,M6J,West Toronto,"Little Portugal,Trinity",43.647926700000006,-79.4197497,37,Squire & Firkin,Pub,43.645231296334295,-79.52124579478895,M8X 1E9
16,M6J,West Toronto,"Little Portugal,Trinity",43.647926700000006,-79.4197497,37,Freshii,Gluten-free,43.645411282104604,-79.52263814541413,M8X 2X2
17,M6J,West Toronto,"Little Portugal,Trinity",43.647926700000006,-79.4197497,37,Sushi Express,Sushi,43.645432647801336,-79.52557525452383,
18,M6J,West Toronto,"Little Portugal,Trinity",43.647926700000006,-79.4197497,37,Mabelle Convenience,Convenience Store,43.64649806233653,-79.52670066379756,
19,M6J,West Toronto,"Little Portugal,Trinity",43.647926700000006,-79.4197497,37,Enterprise Rent-A-Car,Rental Car,43.6468599,-79.51511,M8X 1Z4
0,M1K,Scarborough,"East Birchmount Park,Ionview,Kennedy Park",43.7279292,-79.26202940000002,38,Oakdale Golf and Country Club,Golf Course,43.727966085004844,-79.52231249726017,
1,M1K,Scarborough,"East Birchmount Park,Ionview,Kennedy Park",43.7279292,-79.26202940000002,38,Hwy 401 & Hwy 400,Intersection,43.72797242773429,-79.5223015286055,
2,M1K,Scarborough,"East Birchmount Park,Ionview,Kennedy Park",43.7279292,-79.26202940000002,38,Commercial Bakeries,Bakery,43.7279474149062,-79.52232014925207,
3,M1K,Scarborough,"East Birchmount Park,Ionview,Kennedy Park",43.7279292,-79.26202940000002,38,auctionmaxx,Discount Store,43.72710081596881,-79.52517301758158,M9M 2W6
0,M2K,North York,Bayview Village,43.7869473,-79.385975,39,Doublerinks Arena - Vaughan Iceplex,Skating Rink,43.789973313787804,-79.52126996625495,
1,M2K,North York,Bayview Village,43.7869473,-79.385975,39,Pro Hockey Network,Athletics & Sports,43.790300809379346,-79.52106249838697,
2,M2K,North York,Bayview Village,43.7869473,-79.385975,39,Highway 407 GO Station,Bus Station,43.783255,-79.523846,L4K 1A7
3,M2K,North York,Bayview Village,43.7869473,-79.385975,39,Highway 407 Subway Station,Metro,43.78297713720161,-79.52359199523926,
0,M3K,North York,"CFB Toronto,Downsview East",43.737473200000004,-79.46476329999999,40,Toronto air duct cleaning services,Dry Cleaner,43.739495966259426,-79.52249195426701,M3N 1B3
1,M3K,North York,"CFB Toronto,Downsview East",43.737473200000004,-79.46476329999999,40,Wok of Fame,Chinese,43.74024854616242,-79.51876211468183,
0,M4K,East Toronto,"The Danforth West,Riverdale",43.6795571,-79.352188,41,Plant World,Hardware,43.683627,-79.522305,M9A 4M2
1,M4K,East Toronto,"The Danforth West,Riverdale",43.6795571,-79.352188,41,Buttonwood Park,Playground,43.68128069011653,-79.51947212219238,
2,M4K,East Toronto,"The Danforth West,Riverdale",43.6795571,-79.352188,41,TTC Bus 73 Royal York,Bus,43.6772463547691,-79.51962956928409,
3,M4K,East Toronto,"The Danforth West,Riverdale",43.6795571,-79.352188,41,Allanhurst Park,Playground,43.67896841669573,-79.52500430987637,
0,M5K,Downtown Toronto,"Design Exchange,Toronto Dominion Centre",43.6471768,-79.38157640000001,42,Starbucks,Coffee Shop,43.645425,-79.522439,M8X 2X3
1,M5K,Downtown Toronto,"Design Exchange,Toronto Dominion Centre",43.6471768,-79.38157640000001,42,Gourmet Bakery (Islington Station),Bakery,43.64491852702881,-79.52471129398302,
2,M5K,Downtown Toronto,"Design Exchange,Toronto Dominion Centre",43.6471768,-79.38157640000001,42,Sobeys,Grocery Store,43.645726,-79.521369,M8X 2X9
3,M5K,Downtown Toronto,"Design Exchange,Toronto Dominion Centre",43.6471768,-79.38157640000001,42,Gojima,Japanese,43.6450937571191,-79.52167215350396,M8X 1E9
4,M5K,Downtown Toronto,"Design Exchange,Toronto Dominion Centre",43.6471768,-79.38157640000001,42,Lemongrass,Thai,43.64501004827513,-79.52237930103196,
5,M5K,Downtown Toronto,"Design Exchange,Toronto Dominion Centre",43.6471768,-79.38157640000001,42,A&W,Fast Food,43.645096,-79.522514,M8X 1G2
6,M5K,Downtown Toronto,"Design Exchange,Toronto Dominion Centre",43.6471768,-79.38157640000001,42,A&W,Fast Food,43.64536,-79.521563,M8X 2X4
7,M5K,Downtown Toronto,"Design Exchange,Toronto Dominion Centre",43.6471768,-79.38157640000001,42,Thai Express,Thai,43.645427,-79.522446,M8X 2X3
8,M5K,Downtown Toronto,"Design Exchange,Toronto Dominion Centre",43.6471768,-79.38157640000001,42,Second Cup,Coffee Shop,43.64533056349981,-79.52275256405419,M8X 2W8
9,M5K,Downtown Toronto,"Design Exchange,Toronto Dominion Centre",43.6471768,-79.38157640000001,42,Subway,Sandwiches,43.64501417215867,-79.52216600316655,
10,M5K,Downtown Toronto,"Design Exchange,Toronto Dominion Centre",43.6471768,-79.38157640000001,42,GoodLife Fitness,Gym,43.64554,-79.522255,M8X 2X2
11,M5K,Downtown Toronto,"Design Exchange,Toronto Dominion Centre",43.6471768,-79.38157640000001,42,Tim Hortons,Coffee Shop,43.64527816413406,-79.52236337301633,M8Z 5B5
12,M5K,Downtown Toronto,"Design Exchange,Toronto Dominion Centre",43.6471768,-79.38157640000001,42,Mitzie's Jerk,Caribbean,43.6452148372177,-79.52141242658975,M8X 1E9
13,M5K,Downtown Toronto,"Design Exchange,Toronto Dominion Centre",43.6471768,-79.38157640000001,42,Pizza Pizza,Pizza,43.64495916856127,-79.52246841231887,M8X 1G2
14,M5K,Downtown Toronto,"Design Exchange,Toronto Dominion Centre",43.6471768,-79.38157640000001,42,Squire & Firkin,Pub,43.645231296334295,-79.52124579478895,M8X 1E9
15,M5K,Downtown Toronto,"Design Exchange,Toronto Dominion Centre",43.6471768,-79.38157640000001,42,Orwell's,Pub,43.64488496919141,-79.52312559497283,M8X 1G2
16,M5K,Downtown Toronto,"Design Exchange,Toronto Dominion Centre",43.6471768,-79.38157640000001,42,Freshii,Gluten-free,43.645411282104604,-79.52263814541413,M8X 2X2
17,M5K,Downtown Toronto,"Design Exchange,Toronto Dominion Centre",43.6471768,-79.38157640000001,42,Sushi Express,Sushi,43.645432647801336,-79.52557525452383,
18,M5K,Downtown Toronto,"Design Exchange,Toronto Dominion Centre",43.6471768,-79.38157640000001,42,Mabelle Convenience,Convenience Store,43.64649806233653,-79.52670066379756,
19,M5K,Downtown Toronto,"Design Exchange,Toronto Dominion Centre",43.6471768,-79.38157640000001,42,Enterprise Rent-A-Car,Rental Car,43.6468599,-79.51511,M8X 1Z4
0,M6K,West Toronto,"Brockton,Exhibition Place,Parkdale Village",43.6368472,-79.42819140000002,43,Power Yoga Canada Etobicoke,Yoga Studio,43.63659220688171,-79.52031160065043,
1,M6K,West Toronto,"Brockton,Exhibition Place,Parkdale Village",43.6368472,-79.42819140000002,43,Tim Hortons,Coffee Shop,43.63597324207715,-79.52059663832193,M8Z 4R9
2,M6K,West Toronto,"Brockton,Exhibition Place,Parkdale Village",43.6368472,-79.42819140000002,43,TD Canada Trust,Bank,43.63378641956479,-79.51964914798737,M8Z 4R6
3,M6K,West Toronto,"Brockton,Exhibition Place,Parkdale Village",43.6368472,-79.42819140000002,43,Rocco's Plum Tomato,Italian,43.63489813442689,-79.51995120245513,
4,M6K,West Toronto,"Brockton,Exhibition Place,Parkdale Village",43.6368472,-79.42819140000002,43,Second Cup,Caf√©,43.63426233887402,-79.51985408011149,M8Z 4R6
5,M6K,West Toronto,"Brockton,Exhibition Place,Parkdale Village",43.6368472,-79.42819140000002,43,Rainbow Convenience,Convenience Store,43.63590105720199,-79.5204635546415,
6,M6K,West Toronto,"Brockton,Exhibition Place,Parkdale Village",43.6368472,-79.42819140000002,43,Fresh & Tasty,Deli / Bodega,43.63589907120153,-79.5205341075108,M8Z
7,M6K,West Toronto,"Brockton,Exhibition Place,Parkdale Village",43.6368472,-79.42819140000002,43,Tom Riley Park,Park,43.63897185621175,-79.5255643804047,
8,M6K,West Toronto,"Brockton,Exhibition Place,Parkdale Village",43.6368472,-79.42819140000002,43,Armstrong & Nelson Eavestroughing,Home Services,43.637847,-79.515342,M8Z 2W1
0,M1L,Scarborough,"Clairlea,Golden Mile,Oakridge",43.711111700000004,-79.2845772,44,Wallace C. Swanek Park,Park,43.708896432967165,-79.52264785766602,
1,M1L,Scarborough,"Clairlea,Golden Mile,Oakridge",43.711111700000004,-79.2845772,44,Pelmo Community Centre,Outdoors & Recreation,43.71441852002091,-79.51989309816359,
0,M2L,North York,"Silver Hills,York Mills",43.7574902,-79.37471409999999,45,No Frills,Grocery Store,43.758178,-79.51968,M3N 3A1
1,M2L,North York,"Silver Hills,York Mills",43.7574902,-79.37471409999999,45,Pho Com Viet Nam,Vietnamese,43.75663119859895,-79.51833633068185,M3N 2V3
2,M2L,North York,"Silver Hills,York Mills",43.7574902,-79.37471409999999,45,Pizza Hut,Pizza,43.75633958118749,-79.51781778764257,M3N 2V3
3,M2L,North York,"Silver Hills,York Mills",43.7574902,-79.37471409999999,45,KFC,Fast Food,43.7566,-79.5181,M3N 2V3
4,M2L,North York,"Silver Hills,York Mills",43.7574902,-79.37471409999999,45,Shoppers Drug Mart,Pharmacy,43.756147,-79.515843,M3N 2K1
5,M2L,North York,"Silver Hills,York Mills",43.7574902,-79.37471409999999,45,Petro-Canada,Gas Station,43.757187,-79.517778,M3N 2Z2
6,M2L,North York,"Silver Hills,York Mills",43.7574902,-79.37471409999999,45,Popeyes Louisiana Kitchen,Fried Chicken,43.75660425382002,-79.51604685393343,M3N 2K1
7,M2L,North York,"Silver Hills,York Mills",43.7574902,-79.37471409999999,45,The Beer Store,Beer Store,43.7560941,-79.5162392,M3N 2V3
8,M2L,North York,"Silver Hills,York Mills",43.7574902,-79.37471409999999,45,Subway,Sandwiches,43.75617104020033,-79.5182508987524,M3N 2V3
9,M2L,North York,"Silver Hills,York Mills",43.7574902,-79.37471409999999,45,Pizza Pizza,Pizza,43.756185976894656,-79.5154595375061,M3N 2H1
10,M2L,North York,"Silver Hills,York Mills",43.7574902,-79.37471409999999,45,Planet Fitness,Gym / Fitness,43.757538,-79.51961,
11,M2L,North York,"Silver Hills,York Mills",43.7574902,-79.37471409999999,45,LCBO,Liquor Store,43.759256617873106,-79.51945388294175,M3N 3A1
12,M2L,North York,"Silver Hills,York Mills",43.7574902,-79.37471409999999,45,Tim Hortons,Coffee Shop,43.7561284,-79.5162657,M3N 2K1
13,M2L,North York,"Silver Hills,York Mills",43.7574902,-79.37471409999999,45,Living Well,Caribbean,43.756460538385106,-79.51598949881128,M3N 2V2
14,M2L,North York,"Silver Hills,York Mills",43.7574902,-79.37471409999999,45,Dollarama,Discount Store,43.75677,-79.515084,M3N 2V2
0,M3L,North York,Downsview West,43.7390146,-79.5069436,46,Wok of Fame,Chinese,43.74024854616242,-79.51876211468183,
1,M3L,North York,Downsview West,43.7390146,-79.5069436,46,Country Style,Coffee Shop,43.737045,-79.523811,M3N 1V9
0,M4L,East Toronto,"The Beaches West,India Bazaar",43.6689985,-79.31557159999998,47,COBS Bread,Bakery,43.664940367690775,-79.5204847956449,M9A 3T7
1,M4L,East Toronto,"The Beaches West,India Bazaar",43.6689985,-79.31557159999998,47,TTC Stop #6972,Bus Stop,43.666139,-79.519814,
2,M4L,East Toronto,"The Beaches West,India Bazaar",43.6689985,-79.31557159999998,47,Edgehill House,Park,43.670761782876156,-79.51687894119398,
3,M4L,East Toronto,"The Beaches West,India Bazaar",43.6689985,-79.31557159999998,47,Humbertown Convenience,Convenience Store,43.66492858170565,-79.52048054521903,
0,M5L,Downtown Toronto,"Commerce Court,Victoria Hotel",43.6481985,-79.37981690000001,48,Starbucks,Coffee Shop,43.645425,-79.522439,M8X 2X3
1,M5L,Downtown Toronto,"Commerce Court,Victoria Hotel",43.6481985,-79.37981690000001,48,Gourmet Bakery (Islington Station),Bakery,43.64491852702881,-79.52471129398302,
2,M5L,Downtown Toronto,"Commerce Court,Victoria Hotel",43.6481985,-79.37981690000001,48,Sobeys,Grocery Store,43.645726,-79.521369,M8X 2X9
3,M5L,Downtown Toronto,"Commerce Court,Victoria Hotel",43.6481985,-79.37981690000001,48,Gojima,Japanese,43.6450937571191,-79.52167215350396,M8X 1E9
4,M5L,Downtown Toronto,"Commerce Court,Victoria Hotel",43.6481985,-79.37981690000001,48,Lemongrass,Thai,43.64501004827513,-79.52237930103196,
5,M5L,Downtown Toronto,"Commerce Court,Victoria Hotel",43.6481985,-79.37981690000001,48,A&W,Fast Food,43.645096,-79.522514,M8X 1G2
6,M5L,Downtown Toronto,"Commerce Court,Victoria Hotel",43.6481985,-79.37981690000001,48,A&W,Fast Food,43.64536,-79.521563,M8X 2X4
7,M5L,Downtown Toronto,"Commerce Court,Victoria Hotel",43.6481985,-79.37981690000001,48,Thai Express,Thai,43.645427,-79.522446,M8X 2X3
8,M5L,Downtown Toronto,"Commerce Court,Victoria Hotel",43.6481985,-79.37981690000001,48,Second Cup,Coffee Shop,43.64533056349981,-79.52275256405419,M8X 2W8
9,M5L,Downtown Toronto,"Commerce Court,Victoria Hotel",43.6481985,-79.37981690000001,48,Subway,Sandwiches,43.64501417215867,-79.52216600316655,
10,M5L,Downtown Toronto,"Commerce Court,Victoria Hotel",43.6481985,-79.37981690000001,48,GoodLife Fitness,Gym,43.64554,-79.522255,M8X 2X2
11,M5L,Downtown Toronto,"Commerce Court,Victoria Hotel",43.6481985,-79.37981690000001,48,Tim Hortons,Coffee Shop,43.64527816413406,-79.52236337301633,M8Z 5B5
12,M5L,Downtown Toronto,"Commerce Court,Victoria Hotel",43.6481985,-79.37981690000001,48,Mitzie's Jerk,Caribbean,43.6452148372177,-79.52141242658975,M8X 1E9
13,M5L,Downtown Toronto,"Commerce Court,Victoria Hotel",43.6481985,-79.37981690000001,48,Pizza Pizza,Pizza,43.64495916856127,-79.52246841231887,M8X 1G2
14,M5L,Downtown Toronto,"Commerce Court,Victoria Hotel",43.6481985,-79.37981690000001,48,Orwell's,Pub,43.64488496919141,-79.52312559497283,M8X 1G2
15,M5L,Downtown Toronto,"Commerce Court,Victoria Hotel",43.6481985,-79.37981690000001,48,Squire & Firkin,Pub,43.645231296334295,-79.52124579478895,M8X 1E9
16,M5L,Downtown Toronto,"Commerce Court,Victoria Hotel",43.6481985,-79.37981690000001,48,Freshii,Gluten-free,43.645411282104604,-79.52263814541413,M8X 2X2
17,M5L,Downtown Toronto,"Commerce Court,Victoria Hotel",43.6481985,-79.37981690000001,48,Sushi Express,Sushi,43.645432647801336,-79.52557525452383,
18,M5L,Downtown Toronto,"Commerce Court,Victoria Hotel",43.6481985,-79.37981690000001,48,Mabelle Convenience,Convenience Store,43.64649806233653,-79.52670066379756,
19,M5L,Downtown Toronto,"Commerce Court,Victoria Hotel",43.6481985,-79.37981690000001,48,Enterprise Rent-A-Car,Rental Car,43.6468599,-79.51511,M8X 1Z4
0,M6L,North York,"Downsview,North Park,Upwood Park",43.713756200000006,-79.4900738,49,Kitchen Stuff Plus (Warehouse Sale),Furniture / Home,43.71517525016472,-79.52581786941177,M9N 3K8
1,M6L,North York,"Downsview,North Park,Upwood Park",43.713756200000006,-79.4900738,49,Pelmo Community Centre,Outdoors & Recreation,43.71441852002091,-79.51989309816359,
2,M6L,North York,"Downsview,North Park,Upwood Park",43.713756200000006,-79.4900738,49,Baycrest Terrace,Skating Rink,43.71637551481079,-79.52241305464732,
0,M9L,North York,Humber Summit,43.7563033,-79.56596329999999,50,Pho Com Viet Nam,Vietnamese,43.75663119859895,-79.51833633068185,M3N 2V3
1,M9L,North York,Humber Summit,43.7563033,-79.56596329999999,50,No Frills,Grocery Store,43.758178,-79.51968,M3N 3A1
2,M9L,North York,Humber Summit,43.7563033,-79.56596329999999,50,Pizza Hut,Pizza,43.75633958118749,-79.51781778764257,M3N 2V3
3,M9L,North York,Humber Summit,43.7563033,-79.56596329999999,50,Shoppers Drug Mart,Pharmacy,43.756147,-79.515843,M3N 2K1
4,M9L,North York,Humber Summit,43.7563033,-79.56596329999999,50,KFC,Fast Food,43.7566,-79.5181,M3N 2V3
5,M9L,North York,Humber Summit,43.7563033,-79.56596329999999,50,Petro-Canada,Gas Station,43.757187,-79.517778,M3N 2Z2
6,M9L,North York,Humber Summit,43.7563033,-79.56596329999999,50,Popeyes Louisiana Kitchen,Fried Chicken,43.75660425382002,-79.51604685393343,M3N 2K1
7,M9L,North York,Humber Summit,43.7563033,-79.56596329999999,50,The Beer Store,Beer Store,43.7560941,-79.5162392,M3N 2V3
8,M9L,North York,Humber Summit,43.7563033,-79.56596329999999,50,Subway,Sandwiches,43.75617104020033,-79.5182508987524,M3N 2V3
9,M9L,North York,Humber Summit,43.7563033,-79.56596329999999,50,Pizza Pizza,Pizza,43.756185976894656,-79.5154595375061,M3N 2H1
10,M9L,North York,Humber Summit,43.7563033,-79.56596329999999,50,Planet Fitness,Gym / Fitness,43.757538,-79.51961,
11,M9L,North York,Humber Summit,43.7563033,-79.56596329999999,50,Tim Hortons,Coffee Shop,43.7561284,-79.5162657,M3N 2K1
12,M9L,North York,Humber Summit,43.7563033,-79.56596329999999,50,Dollarama,Discount Store,43.758177,-79.519679,M3N 3A1
13,M9L,North York,Humber Summit,43.7563033,-79.56596329999999,50,Jian Hing Supermarket,Grocery Store,43.75667320052111,-79.51844367991136,M3N 2K2
14,M9L,North York,Humber Summit,43.7563033,-79.56596329999999,50,LCBO,Liquor Store,43.759256617873106,-79.51945388294175,M3N 3A1
15,M9L,North York,Humber Summit,43.7563033,-79.56596329999999,50,Living Well,Caribbean,43.756460538385106,-79.51598949881128,M3N 2V2
16,M9L,North York,Humber Summit,43.7563033,-79.56596329999999,50,Yorkgate Mall,Mall,43.75866403784837,-79.51964054966928,
17,M9L,North York,Humber Summit,43.7563033,-79.56596329999999,50,Dollarama,Discount Store,43.75677,-79.515084,M3N 2V2
0,M1M,Scarborough,"Cliffcrest,Cliffside,Scarborough Village West",43.716316,-79.23947609999999,51,Kitchen Stuff Plus (Warehouse Sale),Furniture / Home,43.71517525016472,-79.52581786941177,M9N 3K8
1,M1M,Scarborough,"Cliffcrest,Cliffside,Scarborough Village West",43.716316,-79.23947609999999,51,Pelmo Community Centre,Outdoors & Recreation,43.71441852002091,-79.51989309816359,
2,M1M,Scarborough,"Cliffcrest,Cliffside,Scarborough Village West",43.716316,-79.23947609999999,51,The Davey Tree Expert Company,Construction,43.71933285,-79.51904169,M3L 1G9
3,M1M,Scarborough,"Cliffcrest,Cliffside,Scarborough Village West",43.716316,-79.23947609999999,51,Fiera Foods,Bakery,43.71894579794069,-79.5259211134858,
0,M2M,North York,"Newtonbrook,Willowdale",43.789053,-79.40849279999999,52,Doublerinks Arena - Vaughan Iceplex,Skating Rink,43.789973313787804,-79.52126996625495,
1,M2M,North York,"Newtonbrook,Willowdale",43.789053,-79.40849279999999,52,Pro Hockey Network,Athletics & Sports,43.790300809379346,-79.52106249838697,
2,M2M,North York,"Newtonbrook,Willowdale",43.789053,-79.40849279999999,52,Bad Axe Throwing,Athletics & Sports,43.793384,-79.520457,
0,M3M,North York,Downsview Central,43.7284964,-79.49569740000001,53,Oakdale Golf and Country Club,Golf Course,43.727966085004844,-79.52231249726017,
1,M3M,North York,Downsview Central,43.7284964,-79.49569740000001,53,Hwy 401 & Hwy 400,Intersection,43.72797242773429,-79.5223015286055,
2,M3M,North York,Downsview Central,43.7284964,-79.49569740000001,53,Commercial Bakeries,Bakery,43.7279474149062,-79.52232014925207,
3,M3M,North York,Downsview Central,43.7284964,-79.49569740000001,53,auctionmaxx,Discount Store,43.72710081596881,-79.52517301758158,M9M 2W6
4,M3M,North York,Downsview Central,43.7284964,-79.49569740000001,53,Oakdale Golf and Country Club Swimming Pool,Pool,43.730928752509904,-79.51612126859987,
0,M4M,East Toronto,Studio District,43.6595255,-79.340923,54,Bulk Barn,Supermarket,43.66093887342527,-79.51777280977804,
1,M4M,East Toronto,Studio District,43.6595255,-79.340923,54,Shoppers Drug Mart,Pharmacy,43.661721,-79.518881,M9A 3T7
2,M4M,East Toronto,Studio District,43.6595255,-79.340923,54,LCBO,Liquor Store,43.66129764810834,-79.51815020642661,M9A 3T6
3,M4M,East Toronto,Studio District,43.6595255,-79.340923,54,Loblaws,Grocery Store,43.661721,-79.518881,M9A 3T7
4,M4M,East Toronto,Studio District,43.6595255,-79.340923,54,Humbertown Shopping Centre,Mall,43.66179660557881,-79.51686144733992,M9A 3T7
5,M4M,East Toronto,Studio District,43.6595255,-79.340923,54,Humbertown Village Spa,Spa,43.661428039626685,-79.5192891766887,M9A 3T7
6,M4M,East Toronto,Studio District,43.6595255,-79.340923,54,Black's Photography,Camera Store,43.661490294225544,-79.51931662775152,M9A 3T7
7,M4M,East Toronto,Studio District,43.6595255,-79.340923,54,Baskin-Robbins,Ice Cream,43.661654485684906,-79.51919035279421,M9A
8,M4M,East Toronto,Studio District,43.6595255,-79.340923,54,Alex Farm Produce,Restaurant,43.66152815366217,-79.51889937070585,
9,M4M,East Toronto,Studio District,43.6595255,-79.340923,54,Daisaky,Japanese,43.66237993188327,-79.51967349081686,
10,M4M,East Toronto,Studio District,43.6595255,-79.340923,54,Second Cup,Coffee Shop,43.66227280880637,-79.5192342745383,
0,M5M,North York,"Bedford Park,Lawrence Manor East",43.7332825,-79.4197497,55,Oakdale Kitchens,Furniture / Home,43.73253,-79.525521,
1,M5M,North York,"Bedford Park,Lawrence Manor East",43.7332825,-79.4197497,55,Oakdale Golf and Country Club Swimming Pool,Pool,43.730928752509904,-79.51612126859987,
0,M6M,York,"Del Ray,Keelesdale,Mount Dennis,Silverthorn",43.6911158,-79.47601329999999,56,Bg Moving,Furniture / Home,43.68911678577267,-79.51807200908661,M9A 4W5
1,M6M,York,"Del Ray,Keelesdale,Mount Dennis,Silverthorn",43.6911158,-79.47601329999999,56,Douglas B. Ford Park,Park,43.691309553419806,-79.51674168213238,
2,M6M,York,"Del Ray,Keelesdale,Mount Dennis,Silverthorn",43.6911158,-79.47601329999999,56,Parma Pizza,Pizza,43.69551785568132,-79.52042015364003,M9P 2T5
0,M9M,North York,"Emery,Humberlea",43.7247659,-79.53224240000002,57,Oakdale Golf and Country Club,Golf Course,43.727966085004844,-79.52231249726017,
1,M9M,North York,"Emery,Humberlea",43.7247659,-79.53224240000002,57,Commercial Bakeries,Bakery,43.7279474149062,-79.52232014925207,
2,M9M,North York,"Emery,Humberlea",43.7247659,-79.53224240000002,57,Hwy 401 & Hwy 400,Intersection,43.72797242773429,-79.5223015286055,
3,M9M,North York,"Emery,Humberlea",43.7247659,-79.53224240000002,57,auctionmaxx,Discount Store,43.72710081596881,-79.52517301758158,M9M 2W6
0,M1N,Scarborough,"Birch Cliff,Cliffside West",43.692657000000004,-79.2648481,58,Petro-Canada,Gas Station,43.696091,-79.520962,M9P 2T5
1,M1N,Scarborough,"Birch Cliff,Cliffside West",43.692657000000004,-79.2648481,58,Parma Pizza,Pizza,43.69551785568132,-79.52042015364003,M9P 2T5
2,M1N,Scarborough,"Birch Cliff,Cliffside West",43.692657000000004,-79.2648481,58,Douglas B. Ford Park,Park,43.691309553419806,-79.51674168213238,
3,M1N,Scarborough,"Birch Cliff,Cliffside West",43.692657000000004,-79.2648481,58,Bg Moving,Furniture / Home,43.68911678577267,-79.51807200908661,M9A 4W5
0,M2N,North York,Willowdale South,43.7701199,-79.40849279999999,59,Black Creek Pioneer Village,Historic Site,43.773393430343425,-79.51699139740164,M3J 3P1
1,M2N,North York,Willowdale South,43.7701199,-79.40849279999999,59,Petro-Canada,Gas Station,43.766586,-79.51987,M3N 2L2
2,M2N,North York,Willowdale South,43.7701199,-79.40849279999999,59,Tri Star Restaurant,Chinese,43.76933638194449,-79.52024995897516,M3N 2L2
3,M2N,North York,Willowdale South,43.7701199,-79.40849279999999,59,John Booth Memorial Arena,Skating Rink,43.769548855413575,-79.52324753470374,
0,M3N,North York,Downsview Northwest,43.7616313,-79.52099940000001,60,No Frills,Grocery Store,43.758178,-79.51968,M3N 3A1
1,M3N,North York,Downsview Northwest,43.7616313,-79.52099940000001,60,Tim Hortons,Coffee Shop,43.757604086285156,-79.5188820362091,M3N 2K2
2,M3N,North York,Downsview Northwest,43.7616313,-79.52099940000001,60,LCBO,Liquor Store,43.759256617873106,-79.51945388294175,M3N 3A1
3,M3N,North York,Downsview Northwest,43.7616313,-79.52099940000001,60,Planet Fitness,Gym / Fitness,43.757538,-79.51961,
0,M4N,Central Toronto,Lawrence Park,43.7280205,-79.3887901,61,Oakdale Golf and Country Club,Golf Course,43.727966085004844,-79.52231249726017,
1,M4N,Central Toronto,Lawrence Park,43.7280205,-79.3887901,61,Hwy 401 & Hwy 400,Intersection,43.72797242773429,-79.5223015286055,
2,M4N,Central Toronto,Lawrence Park,43.7280205,-79.3887901,61,Commercial Bakeries,Bakery,43.7279474149062,-79.52232014925207,
3,M4N,Central Toronto,Lawrence Park,43.7280205,-79.3887901,61,auctionmaxx,Discount Store,43.72710081596881,-79.52517301758158,M9M 2W6
0,M5N,Central Toronto,Roselawn,43.7116948,-79.41693559999999,62,Pelmo Community Centre,Outdoors & Recreation,43.71441852002091,-79.51989309816359,
1,M5N,Central Toronto,Roselawn,43.7116948,-79.41693559999999,62,Wallace C. Swanek Park,Park,43.708896432967165,-79.52264785766602,
0,M6N,York,"The Junction North,Runnymede",43.67318529999999,-79.48726190000001,63,Pasta International,Indian,43.6727027413364,-79.51922329410428,
1,M6N,York,"The Junction North,Runnymede",43.67318529999999,-79.48726190000001,63,A Dog's Haven,Dog Run,43.672945960724896,-79.51792643640067,M9A 4P5
2,M6N,York,"The Junction North,Runnymede",43.67318529999999,-79.48726190000001,63,Joanna's Esthetics,Salon / Barbershop,43.6711008495276,-79.51961858889761,
3,M6N,York,"The Junction North,Runnymede",43.67318529999999,-79.48726190000001,63,Edgehill House,Park,43.670761782876156,-79.51687894119398,
4,M6N,York,"The Junction North,Runnymede",43.67318529999999,-79.48726190000001,63,TTC Bus 73 Royal York,Bus,43.6772463547691,-79.51962956928409,
0,M9N,York,Weston,43.706876,-79.51818840000001,64,Elm Park,Park,43.70613889238497,-79.51586870967138,
1,M9N,York,Weston,43.706876,-79.51818840000001,64,Olympic convenience store,Convenience Store,43.70448603955921,-79.51578933384089,
0,M1P,Scarborough,"Dorset Park,Scarborough Town Centre,Wexford Heights",43.7574096,-79.27330400000001,65,No Frills,Grocery Store,43.758178,-79.51968,M3N 3A1
1,M1P,Scarborough,"Dorset Park,Scarborough Town Centre,Wexford Heights",43.7574096,-79.27330400000001,65,Pho Com Viet Nam,Vietnamese,43.75663119859895,-79.51833633068185,M3N 2V3
2,M1P,Scarborough,"Dorset Park,Scarborough Town Centre,Wexford Heights",43.7574096,-79.27330400000001,65,Pizza Hut,Pizza,43.75633958118749,-79.51781778764257,M3N 2V3
3,M1P,Scarborough,"Dorset Park,Scarborough Town Centre,Wexford Heights",43.7574096,-79.27330400000001,65,KFC,Fast Food,43.7566,-79.5181,M3N 2V3
4,M1P,Scarborough,"Dorset Park,Scarborough Town Centre,Wexford Heights",43.7574096,-79.27330400000001,65,Shoppers Drug Mart,Pharmacy,43.756147,-79.515843,M3N 2K1
5,M1P,Scarborough,"Dorset Park,Scarborough Town Centre,Wexford Heights",43.7574096,-79.27330400000001,65,Petro-Canada,Gas Station,43.757187,-79.517778,M3N 2Z2
6,M1P,Scarborough,"Dorset Park,Scarborough Town Centre,Wexford Heights",43.7574096,-79.27330400000001,65,Popeyes Louisiana Kitchen,Fried Chicken,43.75660425382002,-79.51604685393343,M3N 2K1
7,M1P,Scarborough,"Dorset Park,Scarborough Town Centre,Wexford Heights",43.7574096,-79.27330400000001,65,The Beer Store,Beer Store,43.7560941,-79.5162392,M3N 2V3
8,M1P,Scarborough,"Dorset Park,Scarborough Town Centre,Wexford Heights",43.7574096,-79.27330400000001,65,Subway,Sandwiches,43.75617104020033,-79.5182508987524,M3N 2V3
9,M1P,Scarborough,"Dorset Park,Scarborough Town Centre,Wexford Heights",43.7574096,-79.27330400000001,65,Pizza Pizza,Pizza,43.756185976894656,-79.5154595375061,M3N 2H1
10,M1P,Scarborough,"Dorset Park,Scarborough Town Centre,Wexford Heights",43.7574096,-79.27330400000001,65,Planet Fitness,Gym / Fitness,43.757538,-79.51961,
11,M1P,Scarborough,"Dorset Park,Scarborough Town Centre,Wexford Heights",43.7574096,-79.27330400000001,65,LCBO,Liquor Store,43.759256617873106,-79.51945388294175,M3N 3A1
12,M1P,Scarborough,"Dorset Park,Scarborough Town Centre,Wexford Heights",43.7574096,-79.27330400000001,65,Tim Hortons,Coffee Shop,43.7561284,-79.5162657,M3N 2K1
13,M1P,Scarborough,"Dorset Park,Scarborough Town Centre,Wexford Heights",43.7574096,-79.27330400000001,65,Living Well,Caribbean,43.756460538385106,-79.51598949881128,M3N 2V2
14,M1P,Scarborough,"Dorset Park,Scarborough Town Centre,Wexford Heights",43.7574096,-79.27330400000001,65,Dollarama,Discount Store,43.75677,-79.515084,M3N 2V2
0,M2P,North York,York Mills West,43.752758299999996,-79.4000493,66,Pho Com Viet Nam,Vietnamese,43.75663119859895,-79.51833633068185,M3N 2V3
1,M2P,North York,York Mills West,43.752758299999996,-79.4000493,66,Pizza Hut,Pizza,43.75633958118749,-79.51781778764257,M3N 2V3
2,M2P,North York,York Mills West,43.752758299999996,-79.4000493,66,KFC,Fast Food,43.7566,-79.5181,M3N 2V3
3,M2P,North York,York Mills West,43.752758299999996,-79.4000493,66,Subway,Sandwiches,43.75617104020033,-79.5182508987524,M3N 2V3
4,M2P,North York,York Mills West,43.752758299999996,-79.4000493,66,Pho Mi Viet Hoa,Vietnamese,43.7519356619472,-79.51597892461835,M3N 2J5
5,M2P,North York,York Mills West,43.752758299999996,-79.4000493,66,Jian Hing Supermarket,Grocery Store,43.75667320052111,-79.51844367991136,M3N 2K2
0,M4P,Central Toronto,Davisville North,43.7127511,-79.3901975,67,Kitchen Stuff Plus (Warehouse Sale),Furniture / Home,43.71517525016472,-79.52581786941177,M9N 3K8
1,M4P,Central Toronto,Davisville North,43.7127511,-79.3901975,67,Pelmo Community Centre,Outdoors & Recreation,43.71441852002091,-79.51989309816359,
2,M4P,Central Toronto,Davisville North,43.7127511,-79.3901975,67,Baycrest Terrace,Skating Rink,43.71637551481079,-79.52241305464732,
3,M4P,Central Toronto,Davisville North,43.7127511,-79.3901975,67,Wallace C. Swanek Park,Park,43.708896432967165,-79.52264785766602,
0,M5P,Central Toronto,"Forest Hill North,Forest Hill West",43.6969476,-79.41130720000001,68,Weston Lions Arena,Skating Rink,43.69870670108964,-79.51854809647945,
1,M5P,Central Toronto,"Forest Hill North,Forest Hill West",43.6969476,-79.41130720000001,68,P&M Restaurant,Diner,43.70110845129989,-79.5189817242212,
2,M5P,Central Toronto,"Forest Hill North,Forest Hill West",43.6969476,-79.41130720000001,68,Shoppers Drug Mart,Pharmacy,43.701264,-79.519705,M9N 1X2
3,M5P,Central Toronto,"Forest Hill North,Forest Hill West",43.6969476,-79.41130720000001,68,Petro-Canada,Gas Station,43.696091,-79.520962,M9P 2T5
4,M5P,Central Toronto,"Forest Hill North,Forest Hill West",43.6969476,-79.41130720000001,68,Pizza Pizza,Pizza,43.70058873986015,-79.5174993495782,M9N 1W7
5,M5P,Central Toronto,"Forest Hill North,Forest Hill West",43.6969476,-79.41130720000001,68,Popeyes Louisiana Kitchen,Fried Chicken,43.701045305368446,-79.51892076851034,M9N 1W8
6,M5P,Central Toronto,"Forest Hill North,Forest Hill West",43.6969476,-79.41130720000001,68,West Lions Park,Soccer Field,43.698465872229214,-79.51687894119398,M9N 1G4
0,M6P,West Toronto,"High Park,The Junction South",43.6616083,-79.46476329999999,69,COBS Bread,Bakery,43.664940367690775,-79.5204847956449,M9A 3T7
1,M6P,West Toronto,"High Park,The Junction South",43.6616083,-79.46476329999999,69,Bulk Barn,Supermarket,43.66093887342527,-79.51777280977804,
2,M6P,West Toronto,"High Park,The Junction South",43.6616083,-79.46476329999999,69,Shoppers Drug Mart,Pharmacy,43.661721,-79.518881,M9A 3T7
3,M6P,West Toronto,"High Park,The Junction South",43.6616083,-79.46476329999999,69,LCBO,Liquor Store,43.66129764810834,-79.51815020642661,M9A 3T6
4,M6P,West Toronto,"High Park,The Junction South",43.6616083,-79.46476329999999,69,Loblaws,Grocery Store,43.661721,-79.518881,M9A 3T7
5,M6P,West Toronto,"High Park,The Junction South",43.6616083,-79.46476329999999,69,Humbertown Shopping Centre,Mall,43.66179660557881,-79.51686144733992,M9A 3T7
6,M6P,West Toronto,"High Park,The Junction South",43.6616083,-79.46476329999999,69,Black's Photography,Camera Store,43.661490294225544,-79.51931662775152,M9A 3T7
7,M6P,West Toronto,"High Park,The Junction South",43.6616083,-79.46476329999999,69,Humbertown Village Spa,Spa,43.661428039626685,-79.5192891766887,M9A 3T7
8,M6P,West Toronto,"High Park,The Junction South",43.6616083,-79.46476329999999,69,Baskin-Robbins,Ice Cream,43.661654485684906,-79.51919035279421,M9A
9,M6P,West Toronto,"High Park,The Junction South",43.6616083,-79.46476329999999,69,Alex Farm Produce,Restaurant,43.66152815366217,-79.51889937070585,
10,M6P,West Toronto,"High Park,The Junction South",43.6616083,-79.46476329999999,69,Daisaky,Japanese,43.66237993188327,-79.51967349081686,
11,M6P,West Toronto,"High Park,The Junction South",43.6616083,-79.46476329999999,69,Second Cup,Coffee Shop,43.66227280880637,-79.5192342745383,
12,M6P,West Toronto,"High Park,The Junction South",43.6616083,-79.46476329999999,69,Humbertown Convenience,Convenience Store,43.66492858170565,-79.52048054521903,
13,M6P,West Toronto,"High Park,The Junction South",43.6616083,-79.46476329999999,69,Humber Valley Rink,Skating Rink,43.66482600084906,-79.5248725529118,
14,M6P,West Toronto,"High Park,The Junction South",43.6616083,-79.46476329999999,69,Humber Valley Park,Park,43.66482484362267,-79.52499882000663,
0,M9P,Etobicoke,Westmount,43.696319,-79.53224240000002,70,Weston Lions Arena,Skating Rink,43.69870670108964,-79.51854809647945,
1,M9P,Etobicoke,Westmount,43.696319,-79.53224240000002,70,Petro-Canada,Gas Station,43.696091,-79.520962,M9P 2T5
2,M9P,Etobicoke,Westmount,43.696319,-79.53224240000002,70,Parma Pizza,Pizza,43.69551785568132,-79.52042015364003,M9P 2T5
3,M9P,Etobicoke,Westmount,43.696319,-79.53224240000002,70,Starfish Caribbean Market Ltd,Grocery Store,43.69894587598971,-79.51859191692546,M9N 1V6
4,M9P,Etobicoke,Westmount,43.696319,-79.53224240000002,70,West Lions Park,Soccer Field,43.698465872229214,-79.51687894119398,M9N 1G4
5,M9P,Etobicoke,Westmount,43.696319,-79.53224240000002,70,Northern Shutters,Home Services,43.699263396361836,-79.51672554016112,M9N 3W5
0,M1R,Scarborough,"Maryvale,Wexford",43.750071500000004,-79.2958491,71,Commisso Bakery,Tea Room,43.748678,-79.51726151,M3N 1H7
1,M1R,Scarborough,"Maryvale,Wexford",43.750071500000004,-79.2958491,71,Eddystone Meats,Food & Drink,43.74759737621367,-79.52158954711045,M3N 1H8
2,M1R,Scarborough,"Maryvale,Wexford",43.750071500000004,-79.2958491,71,Pho Mi Viet Hoa,Vietnamese,43.7519356619472,-79.51597892461835,M3N 2J5
3,M1R,Scarborough,"Maryvale,Wexford",43.750071500000004,-79.2958491,71,Yorkwoods Plaza,Plaza,43.75013936233313,-79.51505063356379,
0,M2R,North York,Willowdale West,43.7827364,-79.4422593,72,Highway 407 Subway Station,Metro,43.78297713720161,-79.52359199523926,
1,M2R,North York,Willowdale West,43.7827364,-79.4422593,72,Noble,Hardware,43.78162524676055,-79.51762194432501,L4K 1A7
0,M4R,Central Toronto,North Toronto West,43.7153834,-79.40567840000001,73,Kitchen Stuff Plus (Warehouse Sale),Furniture / Home,43.71517525016472,-79.52581786941177,M9N 3K8
1,M4R,Central Toronto,North Toronto West,43.7153834,-79.40567840000001,73,Ministry Of Game,Video Games,43.717983,-79.523714,M9M 3A7
2,M4R,Central Toronto,North Toronto West,43.7153834,-79.40567840000001,73,Swift Locksmith,Locksmith,43.717519867330765,-79.52571630477905,M9M 2H5
3,M4R,Central Toronto,North Toronto West,43.7153834,-79.40567840000001,73,The Davey Tree Expert Company,Construction,43.71933285,-79.51904169,M3L 1G9
0,M5R,Central Toronto,"The Annex,North Midtown,Yorkville",43.6727097,-79.40567840000001,74,Pasta International,Indian,43.6727027413364,-79.51922329410428,
1,M5R,Central Toronto,"The Annex,North Midtown,Yorkville",43.6727097,-79.40567840000001,74,Joanna's Esthetics,Salon / Barbershop,43.6711008495276,-79.51961858889761,
2,M5R,Central Toronto,"The Annex,North Midtown,Yorkville",43.6727097,-79.40567840000001,74,A Dog's Haven,Dog Run,43.672945960724896,-79.51792643640067,M9A 4P5
3,M5R,Central Toronto,"The Annex,North Midtown,Yorkville",43.6727097,-79.40567840000001,74,McDonald's,Fast Food,43.671091716525275,-79.52665125587696,
4,M5R,Central Toronto,"The Annex,North Midtown,Yorkville",43.6727097,-79.40567840000001,74,Edgehill House,Park,43.670761782876156,-79.51687894119398,
0,M6R,West Toronto,"Parkdale,Roncesvalles",43.6489597,-79.456325,75,Starbucks,Coffee Shop,43.645425,-79.522439,M8X 2X3
1,M6R,West Toronto,"Parkdale,Roncesvalles",43.6489597,-79.456325,75,Sobeys,Grocery Store,43.645726,-79.521369,M8X 2X9
2,M6R,West Toronto,"Parkdale,Roncesvalles",43.6489597,-79.456325,75,Gojima,Japanese,43.6450937571191,-79.52167215350396,M8X 1E9
3,M6R,West Toronto,"Parkdale,Roncesvalles",43.6489597,-79.456325,75,Lemongrass,Thai,43.64501004827513,-79.52237930103196,
4,M6R,West Toronto,"Parkdale,Roncesvalles",43.6489597,-79.456325,75,A&W,Fast Food,43.645096,-79.522514,M8X 1G2
5,M6R,West Toronto,"Parkdale,Roncesvalles",43.6489597,-79.456325,75,A&W,Fast Food,43.64536,-79.521563,M8X 2X4
6,M6R,West Toronto,"Parkdale,Roncesvalles",43.6489597,-79.456325,75,Thai Express,Thai,43.645427,-79.522446,M8X 2X3
7,M6R,West Toronto,"Parkdale,Roncesvalles",43.6489597,-79.456325,75,Second Cup,Coffee Shop,43.64533056349981,-79.52275256405419,M8X 2W8
8,M6R,West Toronto,"Parkdale,Roncesvalles",43.6489597,-79.456325,75,Subway,Sandwiches,43.64501417215867,-79.52216600316655,
9,M6R,West Toronto,"Parkdale,Roncesvalles",43.6489597,-79.456325,75,GoodLife Fitness,Gym,43.64554,-79.522255,M8X 2X2
10,M6R,West Toronto,"Parkdale,Roncesvalles",43.6489597,-79.456325,75,Tim Hortons,Coffee Shop,43.64527816413406,-79.52236337301633,M8Z 5B5
11,M6R,West Toronto,"Parkdale,Roncesvalles",43.6489597,-79.456325,75,Mitzie's Jerk,Caribbean,43.6452148372177,-79.52141242658975,M8X 1E9
12,M6R,West Toronto,"Parkdale,Roncesvalles",43.6489597,-79.456325,75,Montgomery's Inn Museum,History Museum,43.651831023293425,-79.525597213862,
13,M6R,West Toronto,"Parkdale,Roncesvalles",43.6489597,-79.456325,75,Pizza Pizza,Pizza,43.64495916856127,-79.52246841231887,M8X 1G2
14,M6R,West Toronto,"Parkdale,Roncesvalles",43.6489597,-79.456325,75,Orwell's,Pub,43.64488496919141,-79.52312559497283,M8X 1G2
15,M6R,West Toronto,"Parkdale,Roncesvalles",43.6489597,-79.456325,75,Squire & Firkin,Pub,43.645231296334295,-79.52124579478895,M8X 1E9
16,M6R,West Toronto,"Parkdale,Roncesvalles",43.6489597,-79.456325,75,Freshii,Gluten-free,43.645411282104604,-79.52263814541413,M8X 2X2
0,M7R,Mississauga,Canada Post Gateway Processing Centre,43.6369656,-79.61581899999999,76,Power Yoga Canada Etobicoke,Yoga Studio,43.63659220688171,-79.52031160065043,
1,M7R,Mississauga,Canada Post Gateway Processing Centre,43.6369656,-79.61581899999999,76,Tim Hortons,Coffee Shop,43.63597324207715,-79.52059663832193,M8Z 4R9
2,M7R,Mississauga,Canada Post Gateway Processing Centre,43.6369656,-79.61581899999999,76,TD Canada Trust,Bank,43.63378641956479,-79.51964914798737,M8Z 4R6
3,M7R,Mississauga,Canada Post Gateway Processing Centre,43.6369656,-79.61581899999999,76,Rocco's Plum Tomato,Italian,43.63489813442689,-79.51995120245513,
4,M7R,Mississauga,Canada Post Gateway Processing Centre,43.6369656,-79.61581899999999,76,Second Cup,Caf√©,43.63426233887402,-79.51985408011149,M8Z 4R6
5,M7R,Mississauga,Canada Post Gateway Processing Centre,43.6369656,-79.61581899999999,76,Rainbow Convenience,Convenience Store,43.63590105720199,-79.5204635546415,
6,M7R,Mississauga,Canada Post Gateway Processing Centre,43.6369656,-79.61581899999999,76,Fresh & Tasty,Deli / Bodega,43.63589907120153,-79.5205341075108,M8Z
7,M7R,Mississauga,Canada Post Gateway Processing Centre,43.6369656,-79.61581899999999,76,Tom Riley Park,Park,43.63897185621175,-79.5255643804047,
8,M7R,Mississauga,Canada Post Gateway Processing Centre,43.6369656,-79.61581899999999,76,Armstrong & Nelson Eavestroughing,Home Services,43.637847,-79.515342,M8Z 2W1
0,M9R,Etobicoke,"Kingsview Village,Martin Grove Gardens,Richview Gardens,St. Phillips",43.6889054,-79.55472440000001,77,LaRose Bakery,Bakery,43.6868346398581,-79.52443561640371,
1,M9R,Etobicoke,"Kingsview Village,Martin Grove Gardens,Richview Gardens,St. Phillips",43.6889054,-79.55472440000001,77,Pizza Pizza,Pizza,43.68525618478996,-79.5235824225805,M9P 1B2
2,M9R,Etobicoke,"Kingsview Village,Martin Grove Gardens,Richview Gardens,St. Phillips",43.6889054,-79.55472440000001,77,Moxie's Classic Grill,Restaurant,43.68687,-79.524454,
3,M9R,Etobicoke,"Kingsview Village,Martin Grove Gardens,Richview Gardens,St. Phillips",43.6889054,-79.55472440000001,77,Mac's Milk,Convenience Store,43.68557185191021,-79.52369771156515,
0,M1S,Scarborough,Agincourt,43.7942003,-79.26202940000002,78,Riviera Event Space,Nightlife,43.795887401523466,-79.51864375924143,L4K 1W8
1,M1S,Scarborough,Agincourt,43.7942003,-79.26202940000002,78,Interchange Plaza,Mall,43.79333608288842,-79.5243180736006,
2,M1S,Scarborough,Agincourt,43.7942003,-79.26202940000002,78,Coffee Time,Caf√©,43.795983844148736,-79.51787269064485,L4K 3R9
3,M1S,Scarborough,Agincourt,43.7942003,-79.26202940000002,78,Avenue Nightclub,Nightclub,43.796372125474086,-79.51831191347452,
4,M1S,Scarborough,Agincourt,43.7942003,-79.26202940000002,78,Doublerinks Arena - Vaughan Iceplex,Skating Rink,43.789973313787804,-79.52126996625495,
0,M4S,Central Toronto,Davisville,43.7043244,-79.3887901,79,P&M Restaurant,Diner,43.70110845129989,-79.5189817242212,
1,M4S,Central Toronto,Davisville,43.7043244,-79.3887901,79,Shoppers Drug Mart,Pharmacy,43.701264,-79.519705,M9N 1X2
2,M4S,Central Toronto,Davisville,43.7043244,-79.3887901,79,Popeyes Louisiana Kitchen,Fried Chicken,43.701045305368446,-79.51892076851034,M9N 1W8
3,M4S,Central Toronto,Davisville,43.7043244,-79.3887901,79,Eggsmart,Breakfast,43.70227,-79.523103,
4,M4S,Central Toronto,Davisville,43.7043244,-79.3887901,79,Olympic convenience store,Convenience Store,43.70448603955921,-79.51578933384089,
0,M5S,Downtown Toronto,"Harbord,University of Toronto",43.6626956,-79.4000493,80,COBS Bread,Bakery,43.664940367690775,-79.5204847956449,M9A 3T7
1,M5S,Downtown Toronto,"Harbord,University of Toronto",43.6626956,-79.4000493,80,Shoppers Drug Mart,Pharmacy,43.661721,-79.518881,M9A 3T7
2,M5S,Downtown Toronto,"Harbord,University of Toronto",43.6626956,-79.4000493,80,Bulk Barn,Supermarket,43.66093887342527,-79.51777280977804,
3,M5S,Downtown Toronto,"Harbord,University of Toronto",43.6626956,-79.4000493,80,LCBO,Liquor Store,43.66129764810834,-79.51815020642661,M9A 3T6
4,M5S,Downtown Toronto,"Harbord,University of Toronto",43.6626956,-79.4000493,80,Loblaws,Grocery Store,43.661721,-79.518881,M9A 3T7
5,M5S,Downtown Toronto,"Harbord,University of Toronto",43.6626956,-79.4000493,80,Humbertown Shopping Centre,Mall,43.66179660557881,-79.51686144733992,M9A 3T7
6,M5S,Downtown Toronto,"Harbord,University of Toronto",43.6626956,-79.4000493,80,Black's Photography,Camera Store,43.661490294225544,-79.51931662775152,M9A 3T7
7,M5S,Downtown Toronto,"Harbord,University of Toronto",43.6626956,-79.4000493,80,Humbertown Village Spa,Spa,43.661428039626685,-79.5192891766887,M9A 3T7
8,M5S,Downtown Toronto,"Harbord,University of Toronto",43.6626956,-79.4000493,80,Baskin-Robbins,Ice Cream,43.661654485684906,-79.51919035279421,M9A
9,M5S,Downtown Toronto,"Harbord,University of Toronto",43.6626956,-79.4000493,80,Daisaky,Japanese,43.66237993188327,-79.51967349081686,
10,M5S,Downtown Toronto,"Harbord,University of Toronto",43.6626956,-79.4000493,80,Alex Farm Produce,Restaurant,43.66152815366217,-79.51889937070585,
11,M5S,Downtown Toronto,"Harbord,University of Toronto",43.6626956,-79.4000493,80,Humbertown Convenience,Convenience Store,43.66492858170565,-79.52048054521903,
12,M5S,Downtown Toronto,"Harbord,University of Toronto",43.6626956,-79.4000493,80,Humber Valley Rink,Skating Rink,43.66482600084906,-79.5248725529118,
13,M5S,Downtown Toronto,"Harbord,University of Toronto",43.6626956,-79.4000493,80,TTC Stop #6972,Bus Stop,43.666139,-79.519814,
14,M5S,Downtown Toronto,"Harbord,University of Toronto",43.6626956,-79.4000493,80,Humber Valley Park,Park,43.66482484362267,-79.52499882000663,
0,M6S,West Toronto,"Runnymede,Swansea",43.6515706,-79.4844499,81,Trattoria Leonardo,Italian,43.65289339411601,-79.52529976414611,
1,M6S,West Toronto,"Runnymede,Swansea",43.6515706,-79.4844499,81,Donnybrook Park,Park,43.653321988529626,-79.52024765658007,
2,M6S,West Toronto,"Runnymede,Swansea",43.6515706,-79.4844499,81,Montgomery's Inn Museum,History Museum,43.651831023293425,-79.525597213862,
3,M6S,West Toronto,"Runnymede,Swansea",43.6515706,-79.4844499,81,Montgomery Dry Cleaners,Apparel,43.65267627022017,-79.52524586381715,
0,M1T,Scarborough,"Clarks Corners,Sullivan,Tam O'Shanter",43.7816375,-79.3043021,82,Highway 407 Subway Station,Metro,43.78297713720161,-79.52359199523926,
1,M1T,Scarborough,"Clarks Corners,Sullivan,Tam O'Shanter",43.7816375,-79.3043021,82,Noble,Hardware,43.78162524676055,-79.51762194432501,L4K 1A7
0,M4T,Central Toronto,"Moore Park,Summerhill East",43.6895743,-79.38315990000001,83,LaRose Bakery,Bakery,43.6868346398581,-79.52443561640371,
1,M4T,Central Toronto,"Moore Park,Summerhill East",43.6895743,-79.38315990000001,83,Douglas B. Ford Park,Park,43.691309553419806,-79.51674168213238,
2,M4T,Central Toronto,"Moore Park,Summerhill East",43.6895743,-79.38315990000001,83,Moxie's Classic Grill,Restaurant,43.68687,-79.524454,
3,M4T,Central Toronto,"Moore Park,Summerhill East",43.6895743,-79.38315990000001,83,La Rose Park,Playground,43.6855429750334,-79.5187017219659,
4,M4T,Central Toronto,"Moore Park,Summerhill East",43.6895743,-79.38315990000001,83,Mac's Milk,Convenience Store,43.68557185191021,-79.52369771156515,
0,M5T,Downtown Toronto,"Chinatown,Grange Park,Kensington Market",43.6532057,-79.4000493,84,Trattoria Leonardo,Italian,43.65289339411601,-79.52529976414611,
1,M5T,Downtown Toronto,"Chinatown,Grange Park,Kensington Market",43.6532057,-79.4000493,84,Montgomery's Inn Museum,History Museum,43.651831023293425,-79.525597213862,
2,M5T,Downtown Toronto,"Chinatown,Grange Park,Kensington Market",43.6532057,-79.4000493,84,Kingsway Offleash Dig Park,Dog Run,43.651777088181596,-79.51748287861362,
3,M5T,Downtown Toronto,"Chinatown,Grange Park,Kensington Market",43.6532057,-79.4000493,84,Lenny's,Italian,43.65275282508091,-79.52551486631664,
0,M1V,Scarborough,"Agincourt North,L'Amoreaux East,Milliken,Steeles East",43.8152522,-79.2845772,85,Vicentina Meats,Butcher,43.81629212188506,-79.52490525194952,L4K 3S5
1,M1V,Scarborough,"Agincourt North,L'Amoreaux East,Milliken,Steeles East",43.8152522,-79.2845772,85,Anna Maria Trattoria,Italian,43.81379340076343,-79.52487804278913,
0,M4V,Central Toronto,"Deer Park,Forest Hill SE,Rathnelly,South Hill,Summerhill West",43.68641229999999,-79.4000493,86,Plant World,Hardware,43.683627,-79.522305,M9A 4M2
1,M4V,Central Toronto,"Deer Park,Forest Hill SE,Rathnelly,South Hill,Summerhill West",43.68641229999999,-79.4000493,86,LaRose Bakery,Bakery,43.6868346398581,-79.52443561640371,
2,M4V,Central Toronto,"Deer Park,Forest Hill SE,Rathnelly,South Hill,Summerhill West",43.68641229999999,-79.4000493,86,Pizza Pizza,Pizza,43.68525618478996,-79.5235824225805,M9P 1B2
3,M4V,Central Toronto,"Deer Park,Forest Hill SE,Rathnelly,South Hill,Summerhill West",43.68641229999999,-79.4000493,86,Mac's Milk,Convenience Store,43.68557185191021,-79.52369771156515,
4,M4V,Central Toronto,"Deer Park,Forest Hill SE,Rathnelly,South Hill,Summerhill West",43.68641229999999,-79.4000493,86,Moxie's Classic Grill,Restaurant,43.68687,-79.524454,
5,M4V,Central Toronto,"Deer Park,Forest Hill SE,Rathnelly,South Hill,Summerhill West",43.68641229999999,-79.4000493,86,LaRose Plaza,Plaza,43.68596908878465,-79.52641104461547,
0,M5V,Downtown Toronto,"CN Tower,Bathurst Quay,Island airport,Harbourfront West,King and Spadina,Railway Lands,South Niagara",43.6289467,-79.3944199,87,Wingporium,Wings,43.630275355081025,-79.51816911632163,M8Z 4P8
1,M5V,Downtown Toronto,"CN Tower,Bathurst Quay,Island airport,Harbourfront West,King and Spadina,Railway Lands,South Niagara",43.6289467,-79.3944199,87,South St. Burger,Burgers,43.63131374571208,-79.51840794740386,M8Z 6A4
2,M5V,Downtown Toronto,"CN Tower,Bathurst Quay,Island airport,Harbourfront West,King and Spadina,Railway Lands,South Niagara",43.6289467,-79.3944199,87,Dollarama,Discount Store,43.629883,-79.518627,M8Z 4P8
3,M5V,Downtown Toronto,"CN Tower,Bathurst Quay,Island airport,Harbourfront West,King and Spadina,Railway Lands,South Niagara",43.6289467,-79.3944199,87,Artisano Bakery Caf√©,Bakery,43.63100591046913,-79.51817164574096,M8Z 6A4
4,M5V,Downtown Toronto,"CN Tower,Bathurst Quay,Island airport,Harbourfront West,King and Spadina,Railway Lands,South Niagara",43.6289467,-79.3944199,87,Healthy Planet,Supplement Shop,43.63021350898869,-79.51849539043684,M8Z 4P8
5,M5V,Downtown Toronto,"CN Tower,Bathurst Quay,Island airport,Harbourfront West,King and Spadina,Railway Lands,South Niagara",43.6289467,-79.3944199,87,7-Eleven,Convenience Store,43.6291072,-79.5174309,M8Z 4P8
6,M5V,Downtown Toronto,"CN Tower,Bathurst Quay,Island airport,Harbourfront West,King and Spadina,Railway Lands,South Niagara",43.6289467,-79.3944199,87,Subway,Sandwiches,43.63165898987162,-79.5190008585837,M8Z 6A4
7,M5V,Downtown Toronto,"CN Tower,Bathurst Quay,Island airport,Harbourfront West,King and Spadina,Railway Lands,South Niagara",43.6289467,-79.3944199,87,McDonald's,Fast Food,43.6300171,-79.5180371,M8Z 5X5
8,M5V,Downtown Toronto,"CN Tower,Bathurst Quay,Island airport,Harbourfront West,King and Spadina,Railway Lands,South Niagara",43.6289467,-79.3944199,87,No Frills,Grocery Store,43.631152,-79.518617,M8Z 6A4
9,M5V,Downtown Toronto,"CN Tower,Bathurst Quay,Island airport,Harbourfront West,King and Spadina,Railway Lands,South Niagara",43.6289467,-79.3944199,87,RONA,Hardware,43.6293926,-79.5183198,M8Z 4P8
10,M5V,Downtown Toronto,"CN Tower,Bathurst Quay,Island airport,Harbourfront West,King and Spadina,Railway Lands,South Niagara",43.6289467,-79.3944199,87,Royal Canadian Legion #210,Social Club,43.62885507709014,-79.51890264900013,M8Z 2H1
11,M5V,Downtown Toronto,"CN Tower,Bathurst Quay,Island airport,Harbourfront West,King and Spadina,Railway Lands,South Niagara",43.6289467,-79.3944199,87,Islington Florist & Nursery,Flower Shop,43.63015614347047,-79.51871819271057,
12,M5V,Downtown Toronto,"CN Tower,Bathurst Quay,Island airport,Harbourfront West,King and Spadina,Railway Lands,South Niagara",43.6289467,-79.3944199,87,Value Village,Thrift / Vintage,43.63126851470556,-79.51823830604553,M8Z 6A4
13,M5V,Downtown Toronto,"CN Tower,Bathurst Quay,Island airport,Harbourfront West,King and Spadina,Railway Lands,South Niagara",43.6289467,-79.3944199,87,Kingsway Boxing Club,Gym,43.627254438608404,-79.52668419449365,M8Z 2G6
14,M5V,Downtown Toronto,"CN Tower,Bathurst Quay,Island airport,Harbourfront West,King and Spadina,Railway Lands,South Niagara",43.6289467,-79.3944199,87,Burrito Boyz,Burritos,43.62665661432599,-79.52634931800284,
0,M8V,Etobicoke,"Humber Bay Shores,Mimico South,New Toronto",43.6056466,-79.50132070000001,88,Mastercard Centre For Hockey Excellence,Skating Rink,43.60312610064536,-79.51981785027392,M8V 3L1
1,M8V,Etobicoke,"Humber Bay Shores,Mimico South,New Toronto",43.6056466,-79.50132070000001,88,Egglicious Cafe,Breakfast,43.60648456018756,-79.52069319977385,M8Z 5C9
2,M8V,Etobicoke,"Humber Bay Shores,Mimico South,New Toronto",43.6056466,-79.50132070000001,88,Tim Hortons,Coffee Shop,43.60607686652044,-79.52059999108309,M8Z 5C9
3,M8V,Etobicoke,"Humber Bay Shores,Mimico South,New Toronto",43.6056466,-79.50132070000001,88,Pro Teach Baseball,Baseball Field,43.60251810692951,-79.52300048548224,M8V 3N7
0,M9V,Etobicoke,"Albion Gardens,Beaumond Heights,Humbergate,Jamestown,Mount Olive,Silverstone,South Steeles,Thistletown",43.739416399999996,-79.5884369,89,Wok of Fame,Chinese,43.74024854616242,-79.51876211468183,
1,M9V,Etobicoke,"Albion Gardens,Beaumond Heights,Humbergate,Jamestown,Mount Olive,Silverstone,South Steeles,Thistletown",43.739416399999996,-79.5884369,89,Country Style,Coffee Shop,43.737045,-79.523811,M3N 1V9
0,M1W,Scarborough,L'Amoreaux West,43.799525200000005,-79.3183887,90,Riviera Event Space,Nightlife,43.795887401523466,-79.51864375924143,L4K 1W8
1,M1W,Scarborough,L'Amoreaux West,43.799525200000005,-79.3183887,90,Potlight.ca,Business Services,43.79911320000001,-79.5191547,L4K 3Z3
2,M1W,Scarborough,L'Amoreaux West,43.799525200000005,-79.3183887,90,Coffee Time,Caf√©,43.795983844148736,-79.51787269064485,L4K 3R9
0,M4W,Downtown Toronto,Rosedale,43.6795626,-79.37752940000001,91,Plant World,Hardware,43.683627,-79.522305,M9A 4M2
1,M4W,Downtown Toronto,Rosedale,43.6795626,-79.37752940000001,91,Buttonwood Park,Playground,43.68128069011653,-79.51947212219238,
2,M4W,Downtown Toronto,Rosedale,43.6795626,-79.37752940000001,91,TTC Bus 73 Royal York,Bus,43.6772463547691,-79.51962956928409,
3,M4W,Downtown Toronto,Rosedale,43.6795626,-79.37752940000001,91,Allanhurst Park,Playground,43.67896841669573,-79.52500430987637,
0,M5W,Downtown Toronto,Stn A PO Boxes 25 The Esplanade,43.6464352,-79.37484599999999,92,Starbucks,Coffee Shop,43.645425,-79.522439,M8X 2X3
1,M5W,Downtown Toronto,Stn A PO Boxes 25 The Esplanade,43.6464352,-79.37484599999999,92,Gourmet Bakery (Islington Station),Bakery,43.64491852702881,-79.52471129398302,
2,M5W,Downtown Toronto,Stn A PO Boxes 25 The Esplanade,43.6464352,-79.37484599999999,92,Sobeys,Grocery Store,43.645726,-79.521369,M8X 2X9
3,M5W,Downtown Toronto,Stn A PO Boxes 25 The Esplanade,43.6464352,-79.37484599999999,92,Gojima,Japanese,43.6450937571191,-79.52167215350396,M8X 1E9
4,M5W,Downtown Toronto,Stn A PO Boxes 25 The Esplanade,43.6464352,-79.37484599999999,92,Lemongrass,Thai,43.64501004827513,-79.52237930103196,
5,M5W,Downtown Toronto,Stn A PO Boxes 25 The Esplanade,43.6464352,-79.37484599999999,92,A&W,Fast Food,43.645096,-79.522514,M8X 1G2
6,M5W,Downtown Toronto,Stn A PO Boxes 25 The Esplanade,43.6464352,-79.37484599999999,92,The Beer Store,Beer Store,43.6441229,-79.5256144,M8X 1G4
7,M5W,Downtown Toronto,Stn A PO Boxes 25 The Esplanade,43.6464352,-79.37484599999999,92,A&W,Fast Food,43.64536,-79.521563,M8X 2X4
8,M5W,Downtown Toronto,Stn A PO Boxes 25 The Esplanade,43.6464352,-79.37484599999999,92,Second Cup,Coffee Shop,43.64533056349981,-79.52275256405419,M8X 2W8
9,M5W,Downtown Toronto,Stn A PO Boxes 25 The Esplanade,43.6464352,-79.37484599999999,92,Thai Express,Thai,43.645427,-79.522446,M8X 2X3
10,M5W,Downtown Toronto,Stn A PO Boxes 25 The Esplanade,43.6464352,-79.37484599999999,92,Subway,Sandwiches,43.64501417215867,-79.52216600316655,
11,M5W,Downtown Toronto,Stn A PO Boxes 25 The Esplanade,43.6464352,-79.37484599999999,92,Tim Hortons,Coffee Shop,43.64527816413406,-79.52236337301633,M8Z 5B5
12,M5W,Downtown Toronto,Stn A PO Boxes 25 The Esplanade,43.6464352,-79.37484599999999,92,GoodLife Fitness,Gym,43.64554,-79.522255,M8X 2X2
13,M5W,Downtown Toronto,Stn A PO Boxes 25 The Esplanade,43.6464352,-79.37484599999999,92,Mitzie's Jerk,Caribbean,43.6452148372177,-79.52141242658975,M8X 1E9
14,M5W,Downtown Toronto,Stn A PO Boxes 25 The Esplanade,43.6464352,-79.37484599999999,92,Pizza Pizza,Pizza,43.64495916856127,-79.52246841231887,M8X 1G2
15,M5W,Downtown Toronto,Stn A PO Boxes 25 The Esplanade,43.6464352,-79.37484599999999,92,Orwell's,Pub,43.64488496919141,-79.52312559497283,M8X 1G2
16,M5W,Downtown Toronto,Stn A PO Boxes 25 The Esplanade,43.6464352,-79.37484599999999,92,Squire & Firkin,Pub,43.645231296334295,-79.52124579478895,M8X 1E9
17,M5W,Downtown Toronto,Stn A PO Boxes 25 The Esplanade,43.6464352,-79.37484599999999,92,Freshii,Gluten-free,43.645411282104604,-79.52263814541413,M8X 2X2
18,M5W,Downtown Toronto,Stn A PO Boxes 25 The Esplanade,43.6464352,-79.37484599999999,92,Sushi Express,Sushi,43.645432647801336,-79.52557525452383,
19,M5W,Downtown Toronto,Stn A PO Boxes 25 The Esplanade,43.6464352,-79.37484599999999,92,Mabelle Convenience,Convenience Store,43.64649806233653,-79.52670066379756,
20,M5W,Downtown Toronto,Stn A PO Boxes 25 The Esplanade,43.6464352,-79.37484599999999,92,Enterprise Rent-A-Car,Rental Car,43.6468599,-79.51511,M8X 1Z4
0,M8W,Etobicoke,"Alderwood,Long Branch",43.60241370000001,-79.54348409999999,93,Mastercard Centre For Hockey Excellence,Skating Rink,43.60312610064536,-79.51981785027392,M8V 3L1
1,M8W,Etobicoke,"Alderwood,Long Branch",43.60241370000001,-79.54348409999999,93,Egglicious Cafe,Breakfast,43.60648456018756,-79.52069319977385,M8Z 5C9
2,M8W,Etobicoke,"Alderwood,Long Branch",43.60241370000001,-79.54348409999999,93,Tim Hortons,Coffee Shop,43.60607686652044,-79.52059999108309,M8Z 5C9
3,M8W,Etobicoke,"Alderwood,Long Branch",43.60241370000001,-79.54348409999999,93,The Kingdom Of Awesome,Dive Bar,43.60056056569292,-79.52574254724756,
0,M9W,Etobicoke,Northwest,43.706748299999994,-79.5940544,94,Elm Park,Park,43.70613889238497,-79.51586870967138,
1,M9W,Etobicoke,Northwest,43.706748299999994,-79.5940544,94,Olympic convenience store,Convenience Store,43.70448603955921,-79.51578933384089,
0,M1X,Scarborough,Upper Rouge,43.836124700000006,-79.20563609999999,95,Reptilia,Zoo,43.8335218490031,-79.5196769845247,L4K 2N6
1,M1X,Scarborough,Upper Rouge,43.836124700000006,-79.20563609999999,95,Wegz Stadium Bar,Sports Bar,43.83327545397575,-79.52125547127086,L4K 2N6
2,M1X,Scarborough,Upper Rouge,43.836124700000006,-79.20563609999999,95,The Sports Village,Skating Rink,43.83593648892718,-79.51871419607268,L4K 5R1
3,M1X,Scarborough,Upper Rouge,43.836124700000006,-79.20563609999999,95,Denny's,Breakfast,43.8341485290618,-79.52093794941902,L4K 0H1
4,M1X,Scarborough,Upper Rouge,43.836124700000006,-79.20563609999999,95,Petro-Canada,Gas Station,43.832833,-79.522492,L4K 2N6
5,M1X,Scarborough,Upper Rouge,43.836124700000006,-79.20563609999999,95,Planet Play,Theme Park,43.832396940635526,-79.52000290163883,
6,M1X,Scarborough,Upper Rouge,43.836124700000006,-79.20563609999999,95,Tim Hortons,Caf√©,43.83418432294327,-79.52045381069189,L4K 0H1
7,M1X,Scarborough,Upper Rouge,43.836124700000006,-79.20563609999999,95,California Sandwiches,Sandwiches,43.83415,-79.52129,
8,M1X,Scarborough,Upper Rouge,43.836124700000006,-79.20563609999999,95,The Archery Game,Athletics & Sports,43.83330392089158,-79.519146431029,L4K 2N6
9,M1X,Scarborough,Upper Rouge,43.836124700000006,-79.20563609999999,95,Sanctuary Day Spa,Spa,43.83307180037646,-79.52384948730469,
10,M1X,Scarborough,Upper Rouge,43.836124700000006,-79.20563609999999,95,Musaic School Of Music,Music School,43.832387555744475,-79.51911609024309,L4K 2N6
0,M4X,Downtown Toronto,"Cabbagetown,St. James Town",43.667967,-79.3676753,96,COBS Bread,Bakery,43.664940367690775,-79.5204847956449,M9A 3T7
1,M4X,Downtown Toronto,"Cabbagetown,St. James Town",43.667967,-79.3676753,96,TTC Stop #6972,Bus Stop,43.666139,-79.519814,
2,M4X,Downtown Toronto,"Cabbagetown,St. James Town",43.667967,-79.3676753,96,Humbertown Convenience,Convenience Store,43.66492858170565,-79.52048054521903,
3,M4X,Downtown Toronto,"Cabbagetown,St. James Town",43.667967,-79.3676753,96,Edgehill House,Park,43.670761782876156,-79.51687894119398,
4,M4X,Downtown Toronto,"Cabbagetown,St. James Town",43.667967,-79.3676753,96,Humber Valley Rink,Skating Rink,43.66482600084906,-79.5248725529118,
5,M4X,Downtown Toronto,"Cabbagetown,St. James Town",43.667967,-79.3676753,96,Humber Valley Park,Park,43.66482484362267,-79.52499882000663,
0,M5X,Downtown Toronto,"First Canadian Place,Underground city",43.6484292,-79.3822802,97,Starbucks,Coffee Shop,43.645425,-79.522439,M8X 2X3
1,M5X,Downtown Toronto,"First Canadian Place,Underground city",43.6484292,-79.3822802,97,Gourmet Bakery (Islington Station),Bakery,43.64491852702881,-79.52471129398302,
2,M5X,Downtown Toronto,"First Canadian Place,Underground city",43.6484292,-79.3822802,97,Sobeys,Grocery Store,43.645726,-79.521369,M8X 2X9
3,M5X,Downtown Toronto,"First Canadian Place,Underground city",43.6484292,-79.3822802,97,Gojima,Japanese,43.6450937571191,-79.52167215350396,M8X 1E9
4,M5X,Downtown Toronto,"First Canadian Place,Underground city",43.6484292,-79.3822802,97,Lemongrass,Thai,43.64501004827513,-79.52237930103196,
5,M5X,Downtown Toronto,"First Canadian Place,Underground city",43.6484292,-79.3822802,97,A&W,Fast Food,43.645096,-79.522514,M8X 1G2
6,M5X,Downtown Toronto,"First Canadian Place,Underground city",43.6484292,-79.3822802,97,A&W,Fast Food,43.64536,-79.521563,M8X 2X4
7,M5X,Downtown Toronto,"First Canadian Place,Underground city",43.6484292,-79.3822802,97,Thai Express,Thai,43.645427,-79.522446,M8X 2X3
8,M5X,Downtown Toronto,"First Canadian Place,Underground city",43.6484292,-79.3822802,97,Second Cup,Coffee Shop,43.64533056349981,-79.52275256405419,M8X 2W8
9,M5X,Downtown Toronto,"First Canadian Place,Underground city",43.6484292,-79.3822802,97,Subway,Sandwiches,43.64501417215867,-79.52216600316655,
10,M5X,Downtown Toronto,"First Canadian Place,Underground city",43.6484292,-79.3822802,97,GoodLife Fitness,Gym,43.64554,-79.522255,M8X 2X2
11,M5X,Downtown Toronto,"First Canadian Place,Underground city",43.6484292,-79.3822802,97,Tim Hortons,Coffee Shop,43.64527816413406,-79.52236337301633,M8Z 5B5
12,M5X,Downtown Toronto,"First Canadian Place,Underground city",43.6484292,-79.3822802,97,Mitzie's Jerk,Caribbean,43.6452148372177,-79.52141242658975,M8X 1E9
13,M5X,Downtown Toronto,"First Canadian Place,Underground city",43.6484292,-79.3822802,97,Pizza Pizza,Pizza,43.64495916856127,-79.52246841231887,M8X 1G2
14,M5X,Downtown Toronto,"First Canadian Place,Underground city",43.6484292,-79.3822802,97,Orwell's,Pub,43.64488496919141,-79.52312559497283,M8X 1G2
15,M5X,Downtown Toronto,"First Canadian Place,Underground city",43.6484292,-79.3822802,97,Squire & Firkin,Pub,43.645231296334295,-79.52124579478895,M8X 1E9
16,M5X,Downtown Toronto,"First Canadian Place,Underground city",43.6484292,-79.3822802,97,Freshii,Gluten-free,43.645411282104604,-79.52263814541413,M8X 2X2
17,M5X,Downtown Toronto,"First Canadian Place,Underground city",43.6484292,-79.3822802,97,Sushi Express,Sushi,43.645432647801336,-79.52557525452383,
0,M8X,Etobicoke,"The Kingsway,Montgomery Road,Old Mill North",43.653653600000005,-79.5069436,98,Trattoria Leonardo,Italian,43.65289339411601,-79.52529976414611,
1,M8X,Etobicoke,"The Kingsway,Montgomery Road,Old Mill North",43.653653600000005,-79.5069436,98,Montgomery's Inn Museum,History Museum,43.651831023293425,-79.525597213862,
2,M8X,Etobicoke,"The Kingsway,Montgomery Road,Old Mill North",43.653653600000005,-79.5069436,98,Kingsway Offleash Dig Park,Dog Run,43.651777088181596,-79.51748287861362,
3,M8X,Etobicoke,"The Kingsway,Montgomery Road,Old Mill North",43.653653600000005,-79.5069436,98,Lenny's,Italian,43.65275282508091,-79.52551486631664,
0,M4Y,Downtown Toronto,Church and Wellesley,43.6658599,-79.38315990000001,99,COBS Bread,Bakery,43.664940367690775,-79.5204847956449,M9A 3T7
1,M4Y,Downtown Toronto,Church and Wellesley,43.6658599,-79.38315990000001,99,Shoppers Drug Mart,Pharmacy,43.661721,-79.518881,M9A 3T7
2,M4Y,Downtown Toronto,Church and Wellesley,43.6658599,-79.38315990000001,99,Humbertown Convenience,Convenience Store,43.66492858170565,-79.52048054521903,
3,M4Y,Downtown Toronto,Church and Wellesley,43.6658599,-79.38315990000001,99,TTC Stop #6972,Bus Stop,43.666139,-79.519814,
4,M4Y,Downtown Toronto,Church and Wellesley,43.6658599,-79.38315990000001,99,Humber Valley Rink,Skating Rink,43.66482600084906,-79.5248725529118,
5,M4Y,Downtown Toronto,Church and Wellesley,43.6658599,-79.38315990000001,99,Humber Valley Park,Park,43.66482484362267,-79.52499882000663,
6,M4Y,Downtown Toronto,Church and Wellesley,43.6658599,-79.38315990000001,99,Loblaws,Grocery Store,43.661721,-79.518881,M9A 3T7
7,M4Y,Downtown Toronto,Church and Wellesley,43.6658599,-79.38315990000001,99,Daisaky,Japanese,43.66237993188327,-79.51967349081686,
8,M4Y,Downtown Toronto,Church and Wellesley,43.6658599,-79.38315990000001,99,Baskin-Robbins,Ice Cream,43.661654485684906,-79.51919035279421,M9A
0,M7Y,East Toronto,Business Reply Mail Processing Centre 969 Eastern,43.6627439,-79.321558,100,COBS Bread,Bakery,43.664940367690775,-79.5204847956449,M9A 3T7
1,M7Y,East Toronto,Business Reply Mail Processing Centre 969 Eastern,43.6627439,-79.321558,100,Shoppers Drug Mart,Pharmacy,43.661721,-79.518881,M9A 3T7
2,M7Y,East Toronto,Business Reply Mail Processing Centre 969 Eastern,43.6627439,-79.321558,100,Bulk Barn,Supermarket,43.66093887342527,-79.51777280977804,
3,M7Y,East Toronto,Business Reply Mail Processing Centre 969 Eastern,43.6627439,-79.321558,100,LCBO,Liquor Store,43.66129764810834,-79.51815020642661,M9A 3T6
4,M7Y,East Toronto,Business Reply Mail Processing Centre 969 Eastern,43.6627439,-79.321558,100,Loblaws,Grocery Store,43.661721,-79.518881,M9A 3T7
5,M7Y,East Toronto,Business Reply Mail Processing Centre 969 Eastern,43.6627439,-79.321558,100,Humbertown Shopping Centre,Mall,43.66179660557881,-79.51686144733992,M9A 3T7
6,M7Y,East Toronto,Business Reply Mail Processing Centre 969 Eastern,43.6627439,-79.321558,100,Black's Photography,Camera Store,43.661490294225544,-79.51931662775152,M9A 3T7
7,M7Y,East Toronto,Business Reply Mail Processing Centre 969 Eastern,43.6627439,-79.321558,100,Humbertown Village Spa,Spa,43.661428039626685,-79.5192891766887,M9A 3T7
8,M7Y,East Toronto,Business Reply Mail Processing Centre 969 Eastern,43.6627439,-79.321558,100,Baskin-Robbins,Ice Cream,43.661654485684906,-79.51919035279421,M9A
9,M7Y,East Toronto,Business Reply Mail Processing Centre 969 Eastern,43.6627439,-79.321558,100,Daisaky,Japanese,43.66237993188327,-79.51967349081686,
10,M7Y,East Toronto,Business Reply Mail Processing Centre 969 Eastern,43.6627439,-79.321558,100,Alex Farm Produce,Restaurant,43.66152815366217,-79.51889937070585,
11,M7Y,East Toronto,Business Reply Mail Processing Centre 969 Eastern,43.6627439,-79.321558,100,Humbertown Convenience,Convenience Store,43.66492858170565,-79.52048054521903,
12,M7Y,East Toronto,Business Reply Mail Processing Centre 969 Eastern,43.6627439,-79.321558,100,Humber Valley Rink,Skating Rink,43.66482600084906,-79.5248725529118,
13,M7Y,East Toronto,Business Reply Mail Processing Centre 969 Eastern,43.6627439,-79.321558,100,TTC Stop #6972,Bus Stop,43.666139,-79.519814,
14,M7Y,East Toronto,Business Reply Mail Processing Centre 969 Eastern,43.6627439,-79.321558,100,Humber Valley Park,Park,43.66482484362267,-79.52499882000663,
0,M8Y,Etobicoke,"Humber Bay,King's Mill Park,Kingsway Park South East,Mimico NE,Old Mill South,The Queensway East,Royal York South East,Sunnylea",43.6362579,-79.49850909999999,101,Power Yoga Canada Etobicoke,Yoga Studio,43.63659220688171,-79.52031160065043,
1,M8Y,Etobicoke,"Humber Bay,King's Mill Park,Kingsway Park South East,Mimico NE,Old Mill South,The Queensway East,Royal York South East,Sunnylea",43.6362579,-79.49850909999999,101,TD Canada Trust,Bank,43.63378641956479,-79.51964914798737,M8Z 4R6
2,M8Y,Etobicoke,"Humber Bay,King's Mill Park,Kingsway Park South East,Mimico NE,Old Mill South,The Queensway East,Royal York South East,Sunnylea",43.6362579,-79.49850909999999,101,Tim Hortons,Coffee Shop,43.63597324207715,-79.52059663832193,M8Z 4R9
3,M8Y,Etobicoke,"Humber Bay,King's Mill Park,Kingsway Park South East,Mimico NE,Old Mill South,The Queensway East,Royal York South East,Sunnylea",43.6362579,-79.49850909999999,101,Rocco's Plum Tomato,Italian,43.63489813442689,-79.51995120245513,
4,M8Y,Etobicoke,"Humber Bay,King's Mill Park,Kingsway Park South East,Mimico NE,Old Mill South,The Queensway East,Royal York South East,Sunnylea",43.6362579,-79.49850909999999,101,Second Cup,Caf√©,43.63426233887402,-79.51985408011149,M8Z 4R6
5,M8Y,Etobicoke,"Humber Bay,King's Mill Park,Kingsway Park South East,Mimico NE,Old Mill South,The Queensway East,Royal York South East,Sunnylea",43.6362579,-79.49850909999999,101,Rainbow Convenience,Convenience Store,43.63590105720199,-79.5204635546415,
6,M8Y,Etobicoke,"Humber Bay,King's Mill Park,Kingsway Park South East,Mimico NE,Old Mill South,The Queensway East,Royal York South East,Sunnylea",43.6362579,-79.49850909999999,101,Fresh & Tasty,Deli / Bodega,43.63589907120153,-79.5205341075108,M8Z
7,M8Y,Etobicoke,"Humber Bay,King's Mill Park,Kingsway Park South East,Mimico NE,Old Mill South,The Queensway East,Royal York South East,Sunnylea",43.6362579,-79.49850909999999,101,Tom Riley Park,Park,43.63897185621175,-79.5255643804047,
8,M8Y,Etobicoke,"Humber Bay,King's Mill Park,Kingsway Park South East,Mimico NE,Old Mill South,The Queensway East,Royal York South East,Sunnylea",43.6362579,-79.49850909999999,101,Armstrong & Nelson Eavestroughing,Home Services,43.637847,-79.515342,M8Z 2W1
0,M8Z,Etobicoke,"Kingsway Park South West,Mimico NW,The Queensway West,Royal York South West,South of Bloor",43.6288408,-79.52099940000001,102,Wingporium,Wings,43.630275355081025,-79.51816911632163,M8Z 4P8
1,M8Z,Etobicoke,"Kingsway Park South West,Mimico NW,The Queensway West,Royal York South West,South of Bloor",43.6288408,-79.52099940000001,102,South St. Burger,Burgers,43.63131374571208,-79.51840794740386,M8Z 6A4
2,M8Z,Etobicoke,"Kingsway Park South West,Mimico NW,The Queensway West,Royal York South West,South of Bloor",43.6288408,-79.52099940000001,102,Dollarama,Discount Store,43.629883,-79.518627,M8Z 4P8
3,M8Z,Etobicoke,"Kingsway Park South West,Mimico NW,The Queensway West,Royal York South West,South of Bloor",43.6288408,-79.52099940000001,102,Artisano Bakery Caf√©,Bakery,43.63100591046913,-79.51817164574096,M8Z 6A4
4,M8Z,Etobicoke,"Kingsway Park South West,Mimico NW,The Queensway West,Royal York South West,South of Bloor",43.6288408,-79.52099940000001,102,Healthy Planet,Supplement Shop,43.63021350898869,-79.51849539043684,M8Z 4P8
5,M8Z,Etobicoke,"Kingsway Park South West,Mimico NW,The Queensway West,Royal York South West,South of Bloor",43.6288408,-79.52099940000001,102,7-Eleven,Convenience Store,43.6291072,-79.5174309,M8Z 4P8
6,M8Z,Etobicoke,"Kingsway Park South West,Mimico NW,The Queensway West,Royal York South West,South of Bloor",43.6288408,-79.52099940000001,102,Subway,Sandwiches,43.63165898987162,-79.5190008585837,M8Z 6A4
7,M8Z,Etobicoke,"Kingsway Park South West,Mimico NW,The Queensway West,Royal York South West,South of Bloor",43.6288408,-79.52099940000001,102,McDonald's,Fast Food,43.6300171,-79.5180371,M8Z 5X5
8,M8Z,Etobicoke,"Kingsway Park South West,Mimico NW,The Queensway West,Royal York South West,South of Bloor",43.6288408,-79.52099940000001,102,No Frills,Grocery Store,43.631152,-79.518617,M8Z 6A4
9,M8Z,Etobicoke,"Kingsway Park South West,Mimico NW,The Queensway West,Royal York South West,South of Bloor",43.6288408,-79.52099940000001,102,RONA,Hardware,43.6293926,-79.5183198,M8Z 4P8
10,M8Z,Etobicoke,"Kingsway Park South West,Mimico NW,The Queensway West,Royal York South West,South of Bloor",43.6288408,-79.52099940000001,102,Royal Canadian Legion #210,Social Club,43.62885507709014,-79.51890264900013,M8Z 2H1
11,M8Z,Etobicoke,"Kingsway Park South West,Mimico NW,The Queensway West,Royal York South West,South of Bloor",43.6288408,-79.52099940000001,102,Islington Florist & Nursery,Flower Shop,43.63015614347047,-79.51871819271057,
12,M8Z,Etobicoke,"Kingsway Park South West,Mimico NW,The Queensway West,Royal York South West,South of Bloor",43.6288408,-79.52099940000001,102,Value Village,Thrift / Vintage,43.63126851470556,-79.51823830604553,M8Z 6A4
13,M8Z,Etobicoke,"Kingsway Park South West,Mimico NW,The Queensway West,Royal York South West,South of Bloor",43.6288408,-79.52099940000001,102,Kingsway Boxing Club,Gym,43.627254438608404,-79.52668419449365,M8Z 2G6
14,M8Z,Etobicoke,"Kingsway Park South West,Mimico NW,The Queensway West,Royal York South West,South of Bloor",43.6288408,-79.52099940000001,102,Burrito Boyz,Burritos,43.62665661432599,-79.52634931800284,
